{"type":"FeatureCollection","crs":{"type":"name","properties":{"name":"EPSG:4326"}},"features":[{"type":"Feature","id":2,"geometry":{"type":"Polygon","coordinates":[[[-111.636896026981,33.4715408851397],[-111.639052862743,33.4715479326401],[-111.639055611425,33.473364340887],[-111.635898502188,33.4733538864829],[-111.635897683118,33.4728592196824],[-111.636896564104,33.4728606549534],[-111.636896026981,33.4715408851397]]]},"properties":{"OBJECTID":2,"CITY":"MESA"}},{"type":"Feature","id":3,"geometry":{"type":"Polygon","coordinates":[[[-111.650001981251,33.4715938708585],[-111.650948725434,33.4715992447064],[-111.650952194306,33.4725066159254],[-111.650901150203,33.4725062368893],[-111.650761767738,33.4721861104399],[-111.650562385719,33.4719151768373],[-111.650382741475,33.4718556912731],[-111.650001937699,33.4718560908402],[-111.650001981251,33.4715938708585]]]},"properties":{"OBJECTID":3,"CITY":"MESA"}},{"type":"Feature","id":4,"geometry":{"type":"Polygon","coordinates":[[[-111.666103771278,33.4712142269873],[-111.667056085816,33.4712177983833],[-111.667057640664,33.4716669567154],[-111.66703897355,33.4716691841834],[-111.66703548715,33.471669332254],[-111.66703200383,33.4716695317274],[-111.667028524666,33.4716697826057],[-111.66702505289,33.4716700839936],[-111.667021586348,33.471670435887],[-111.667018128265,33.4716708391939],[-111.667014678648,33.471671292111],[-111.667011239645,33.4716717955444],[-111.667007811257,33.4716723494939],[-111.667004395634,33.471672953964],[-111.667000992783,33.4716736071513],[-111.666997603774,33.4716743108613],[-111.666994229685,33.4716750641946],[-111.666990871596,33.4716758662515],[-111.666987531657,33.4716767170364],[-111.666984209866,33.471677617451],[-111.666980906229,33.471678565692],[-111.666977623973,33.4716795617658],[-111.666974362019,33.4716806065719],[-111.666971123601,33.4716816983135],[-111.666967907643,33.4716828369885],[-111.666964715217,33.4716840235006],[-111.666960322674,33.4716857486122],[-111.666104903852,33.4716816708459],[-111.666103771278,33.4712142269873]]]},"properties":{"OBJECTID":4,"CITY":"MESA"}},{"type":"Feature","id":5,"geometry":{"type":"Polygon","coordinates":[[[-111.666538259625,33.4680531491985],[-111.667044324528,33.4680554875527],[-111.667046456617,33.4689649268938],[-111.667050293493,33.4698677817463],[-111.666545196766,33.4698659421774],[-111.666541739145,33.4689624740331],[-111.666538259625,33.4680531491985]]]},"properties":{"OBJECTID":5,"CITY":"MESA"}},{"type":"Feature","id":6,"geometry":{"type":"Polygon","coordinates":[[[-111.661452675312,33.4632881988117],[-111.661960930315,33.4632895452409],[-111.661959386645,33.4637408510262],[-111.662751449965,33.4637425768177],[-111.662750096575,33.4641392419876],[-111.66274998596,33.4641421271892],[-111.662749694628,33.4641450048072],[-111.662749223684,33.464147864925],[-111.662748575301,33.4641507003335],[-111.662747750578,33.4641535029199],[-111.662746751685,33.4641562663765],[-111.662745581877,33.4641589816932],[-111.662744244398,33.4641616425646],[-111.662742742501,33.4641642408822],[-111.662741080509,33.4641667694413],[-111.662739262744,33.4641692219388],[-111.662737294605,33.4641715911721],[-111.662735180416,33.4641738708384],[-111.662732927722,33.4641760555428],[-111.66273054085,33.4641781371789],[-111.662728027342,33.4641801121555],[-111.662725394749,33.4641819732743],[-111.66272264846,33.4641837169397],[-111.662719798175,33.4641853377612],[-111.662716850361,33.4641868312438],[-111.662713812561,33.4641881928942],[-111.662710694467,33.4641894200274],[-111.66270750362,33.4641905090519],[-111.662704249714,33.4641914554791],[-111.66270094136,33.464192258425],[-111.662697587171,33.4641929152022],[-111.66269419576,33.4641934240247],[-111.662690777887,33.4641937840131],[-111.662684274817,33.4641940511179],[-111.661449584294,33.4641902575754],[-111.661452675312,33.4632881988117]]]},"properties":{"OBJECTID":6,"CITY":"MESA"}},{"type":"Feature","id":7,"geometry":{"type":"Polygon","coordinates":[[[-111.655603218988,33.4623747834631],[-111.655602885815,33.4632539727256],[-111.655097582444,33.4632525370275],[-111.65510185404,33.4623740026058],[-111.655603218988,33.4623747834631]]]},"properties":{"OBJECTID":7,"CITY":"MESA"}},{"type":"Feature","id":8,"geometry":{"type":"Polygon","coordinates":[[[-111.665053625014,33.4550623193213],[-111.667087419616,33.4550680808858],[-111.667082768372,33.4559766888334],[-111.665048617166,33.4559701013606],[-111.665053625014,33.4550623193213]]]},"properties":{"OBJECTID":8,"CITY":"MESA"}},{"type":"Feature","id":10,"geometry":{"type":"Polygon","coordinates":[[[-111.622412744943,33.4357550364909],[-111.622418523133,33.4359208312088],[-111.622255233619,33.4362982439262],[-111.622271641085,33.4365648332526],[-111.622271293625,33.4367018041283],[-111.621795974732,33.4367010761899],[-111.62179755947,33.4357702018285],[-111.622412744943,33.4357550364909]]]},"properties":{"OBJECTID":10,"CITY":"MESA"}},{"type":"Feature","id":11,"geometry":{"type":"Polygon","coordinates":[[[-111.618560875929,33.4304977313059],[-111.619560107105,33.4305001288707],[-111.619559510285,33.4309189553111],[-111.618559529054,33.4309165559239],[-111.618560875929,33.4304977313059]]]},"properties":{"OBJECTID":11,"CITY":"MESA"}},{"type":"Feature","id":12,"geometry":{"type":"Polygon","coordinates":[[[-111.690895778283,33.4220582144991],[-111.690892435239,33.4227586162255],[-111.689854431318,33.4227606252255],[-111.689856807904,33.4220604408939],[-111.690895778283,33.4220582144991]]]},"properties":{"OBJECTID":12,"CITY":"MESA"}},{"type":"Feature","id":13,"geometry":{"type":"Polygon","coordinates":[[[-111.710358716707,33.4182460015869],[-111.71035746633,33.418468734862],[-111.709859270896,33.4185518521956],[-111.709839896882,33.4219378450791],[-111.710337583454,33.4219398487902],[-111.710335572967,33.4223320215934],[-111.707067268538,33.422334234776],[-111.707097689531,33.4182529015423],[-111.710358716707,33.4182460015869]]]},"properties":{"OBJECTID":13,"CITY":"MESA"}},{"type":"Feature","id":14,"geometry":{"type":"Polygon","coordinates":[[[-111.616215370804,33.416969138115],[-111.616218302943,33.4167833739114],[-111.617506600643,33.4167903158891],[-111.617509060075,33.4154947952686],[-111.618595485205,33.4154963435837],[-111.618584905254,33.4179255264632],[-111.616215370804,33.416969138115]]]},"properties":{"OBJECTID":14,"CITY":"MESA"}},{"type":"Feature","id":15,"geometry":{"type":"Polygon","coordinates":[[[-111.659062894143,33.4131209090427],[-111.659062329162,33.4135351703379],[-111.658864386889,33.4135347979512],[-111.658863312915,33.413120611702],[-111.659062894143,33.4131209090427]]]},"properties":{"OBJECTID":15,"CITY":"MESA"}},{"type":"Feature","id":16,"geometry":{"type":"Polygon","coordinates":[[[-111.610924102493,33.4079340033227],[-111.610920470951,33.4084479758251],[-111.609162037542,33.4084436292733],[-111.609163173785,33.407934099673],[-111.610924102493,33.4079340033227]]]},"properties":{"OBJECTID":16,"CITY":"MESA"}},{"type":"Feature","id":17,"geometry":{"type":"Polygon","coordinates":[[[-111.615183909164,33.407974874954],[-111.615182376879,33.4084570343667],[-111.612899783181,33.4084503650542],[-111.612734234162,33.4079751039408],[-111.615183909164,33.407974874954]]]},"properties":{"OBJECTID":17,"CITY":"MESA"}},{"type":"Feature","id":18,"geometry":{"type":"Polygon","coordinates":[[[-111.640278730085,33.3960797322788],[-111.640275449949,33.3969101479403],[-111.638686966152,33.3969080849254],[-111.638689767564,33.3960777990248],[-111.640278730085,33.3960797322788]]]},"properties":{"OBJECTID":18,"CITY":"MESA"}},{"type":"Feature","id":19,"geometry":{"type":"Polygon","coordinates":[[[-111.641325749726,33.3960809957715],[-111.641323143043,33.3968571411352],[-111.641322979947,33.3968604536392],[-111.641322646278,33.3968633140103],[-111.641322134221,33.3968661550498],[-111.641321444871,33.3968689704481],[-111.641320581481,33.3968717511955],[-111.641319546223,33.396874490083],[-111.641318341271,33.396877179902],[-111.641316969873,33.3968798134458],[-111.641315435275,33.3968823835081],[-111.641313743953,33.396884881988],[-111.641311898078,33.3968873025781],[-111.641309904116,33.3968896398828],[-111.641307766393,33.3968918857962],[-111.641305492453,33.3968940340231],[-111.641303086608,33.3968960809663],[-111.641300557484,33.3968980185295],[-111.641297909394,33.3968998422137],[-111.641295152025,33.3969015484337],[-111.641292292925,33.3969031299926],[-111.641289337476,33.3969045841971],[-111.641286296444,33.3969059065626],[-111.641283176286,33.3969070943983],[-111.641279986692,33.3969081432172],[-111.64127673627,33.3969090503333],[-111.641273433629,33.3969098130606],[-111.641270087371,33.3969104305164],[-111.64126670718,33.3969109000171],[-111.641263302733,33.3969112206824],[-111.641259882634,33.3969113916299],[-111.641256457638,33.3969114110798],[-111.64079904753,33.3969109451246],[-111.640802323204,33.3960803653146],[-111.641325749726,33.3960809957715]]]},"properties":{"OBJECTID":19,"CITY":"MESA"}},{"type":"Feature","id":20,"geometry":{"type":"Polygon","coordinates":[[[-111.636078916797,33.3934987421687],[-111.636071349816,33.3942783109897],[-111.634482792405,33.394276022809],[-111.634481977937,33.3934965306499],[-111.636078916797,33.3934987421687]]]},"properties":{"OBJECTID":20,"CITY":"MESA"}},{"type":"Feature","id":21,"geometry":{"type":"Polygon","coordinates":[[[-111.61313455493,33.4370194131866],[-111.615039390978,33.4370201985232],[-111.615088770246,33.4370614441879],[-111.615104544155,33.437355310397],[-111.615145315699,33.4376474811718],[-111.615210876813,33.4379364637259],[-111.615300892769,33.4382207815478],[-111.61546246357,33.4386655663051],[-111.615546222389,33.4389336056732],[-111.615606272614,33.4392060788945],[-111.615642289619,33.4394815140119],[-111.615654078601,33.4397584230535],[-111.615647834235,33.4404681752702],[-111.613124182628,33.4404670834065],[-111.61313455493,33.4370194131866]]]},"properties":{"OBJECTID":21,"CITY":"MESA"}},{"type":"Feature","id":22,"geometry":{"type":"Polygon","coordinates":[[[-111.639709992117,33.4004960326416],[-111.637172673464,33.4004930144334],[-111.637178289341,33.3997193787286],[-111.63717214482,33.399603423642],[-111.637145610314,33.3994895079039],[-111.637099270193,33.3993801399393],[-111.637034144934,33.399277728022],[-111.636862288134,33.3990429893055],[-111.636668568972,33.3991426370974],[-111.636491843081,33.3988949897928],[-111.636103908755,33.3990925488188],[-111.635660903063,33.3984802995211],[-111.636292031625,33.3981587886326],[-111.636293284335,33.3977676930818],[-111.636100619992,33.3977672576316],[-111.636092415919,33.3970559505521],[-111.641321187127,33.3970621674834],[-111.641319864895,33.3975243868565],[-111.6397506867,33.4002503069811],[-111.639709992117,33.4004960326416]]]},"properties":{"OBJECTID":22,"CITY":"MESA"}},{"type":"Feature","id":23,"geometry":{"type":"Polygon","coordinates":[[[-111.59817670621,33.4332097662284],[-111.598180304825,33.4296927208608],[-111.602303904769,33.4296938025008],[-111.602296109387,33.4332078749211],[-111.59817670621,33.4332097662284]]]},"properties":{"OBJECTID":23,"CITY":"MESA"}},{"type":"Feature","id":24,"geometry":{"type":"Polygon","coordinates":[[[-111.612559017282,33.4404669575725],[-111.610414403071,33.4404666258426],[-111.610422652305,33.4369913093777],[-111.612565541985,33.4369916373639],[-111.612559017282,33.4404669575725]]]},"properties":{"OBJECTID":24,"CITY":"MESA"}},{"type":"Feature","id":25,"geometry":{"type":"Polygon","coordinates":[[[-111.619712858253,33.4366565556118],[-111.619714182612,33.4359011685009],[-111.620716770406,33.435902803941],[-111.620716760164,33.4359308494654],[-111.620716530075,33.436699418455],[-111.61976203929,33.4366978620689],[-111.619712858253,33.4366565556118]]]},"properties":{"OBJECTID":25,"CITY":"MESA"}},{"type":"Feature","id":826,"geometry":{"type":"Polygon","coordinates":[[[-111.636381180787,33.4390510685548],[-111.636386629483,33.4390553738588],[-111.636390405421,33.4390581100324],[-111.636390480539,33.4390581625008],[-111.636394291415,33.4390607364474],[-111.636394443818,33.4390608359787],[-111.636398283177,33.4390632485854],[-111.636398515029,33.4390633915779],[-111.636402373179,33.4390656464295],[-111.636402692025,33.4390658274899],[-111.636406560362,33.4390679245672],[-111.636406967289,33.4390681400912],[-111.636410837201,33.4390700820796],[-111.636411336532,33.439070325765],[-111.636415199408,33.4390721144485],[-111.636415793308,33.4390723817918],[-111.636419642684,33.4390740207626],[-111.636420333322,33.4390743063585],[-111.636424160582,33.4390757992039],[-111.636424950129,33.4390760967454],[-111.636428748811,33.4390774461559],[-111.636429638357,33.4390777511369],[-111.636433401997,33.4390789607047],[-111.63643439371,33.4390792677199],[-111.636438955072,33.4390805737685],[-111.636439207593,33.4390806437699],[-111.636443803818,33.4390818110355],[-111.636444076783,33.439081878378],[-111.636448691746,33.4390829041189],[-111.636448994831,33.439082969726],[-111.636453651098,33.4390838603052],[-111.636454990447,33.4390840914613],[-111.636458644261,33.4390846704924],[-111.636459898813,33.4390848491583],[-111.636463675536,33.4390853346903],[-111.636464834521,33.4390854653502],[-111.636468742772,33.439085852894],[-111.636469794343,33.4390859409313],[-111.636473818021,33.4390862205318],[-111.636474769686,33.4390862722754],[-111.636478856111,33.4390864375017],[-111.636479756241,33.4390864611761],[-111.636483936616,33.4390865084919],[-111.636484746482,33.4390865076165],[-111.636489354256,33.4390864242497],[-111.636489737186,33.4390864097859],[-111.636494433595,33.4390861886591],[-111.636494719743,33.4390861694681],[-111.636499499433,33.4390858033558],[-111.636499689856,33.4390857857519],[-111.636504547457,33.4390852719367],[-111.636504642142,33.4390852595268],[-111.636509569072,33.4390845916774],[-111.636597621325,33.4393377126676],[-111.636300610936,33.4393385979026],[-111.636381180787,33.4390510685548]]]},"properties":{"OBJECTID":826,"CITY":"MESA"}},{"type":"Feature","id":2026,"geometry":{"type":"Polygon","coordinates":[[[-111.597208865542,33.4196033095677],[-111.597208569843,33.419672018402],[-111.597716206496,33.4196735473382],[-111.597769444091,33.4197183391312],[-111.597767680716,33.4204054305242],[-111.597719812011,33.4204455169955],[-111.595318645945,33.4204443218843],[-111.595319662951,33.4200056562029],[-111.595270998482,33.4200055301321],[-111.595272323305,33.4196059539425],[-111.597208865542,33.4196033095677]]]},"properties":{"OBJECTID":2026,"CITY":"MESA"}},{"type":"Feature","id":2826,"geometry":{"type":"Polygon","coordinates":[[[-111.632575448085,33.4878472882663],[-111.632569561661,33.4805915760498],[-111.632405576305,33.480591200056],[-111.632402971532,33.4733382352769],[-111.632400388499,33.4660770169687],[-111.623900866839,33.4660352379121],[-111.623919223931,33.4586064119461],[-111.623939756036,33.4515046394407],[-111.624067621802,33.4515049412407],[-111.62406810989,33.4513592777491],[-111.62406862566,33.4512053701032],[-111.615407592129,33.4511956087652],[-111.606609960197,33.4511959061526],[-111.597947828007,33.4511959222702],[-111.597954097704,33.444089169913],[-111.58930252028,33.4440864132458],[-111.580827973543,33.4440846317007],[-111.580839485466,33.4368289306161],[-111.580836542545,33.4295795479069],[-111.580839874118,33.4221464911733],[-111.584848948793,33.4221468381897],[-111.584855924531,33.4187064207139],[-111.584860503088,33.4164483375266],[-111.584861346832,33.4160322454463],[-111.583581297467,33.4160289874884],[-111.582824195608,33.4160270534364],[-111.582823914188,33.4164439846622],[-111.581645082598,33.4164435074099],[-111.580785426143,33.4164431531362],[-111.580784152166,33.4150686773767],[-111.58078537902,33.4079255984512],[-111.580836493325,33.4079257368121],[-111.58083529884,33.4005589225043],[-111.580833682694,33.3933783380676],[-111.58083366663,33.393303135012],[-111.58084185667,33.3860473647281],[-111.580820007822,33.3789338705626],[-111.584257039472,33.3789486218976],[-111.584258072508,33.378676531213],[-111.584190293981,33.3715084881079],[-111.584122823508,33.3642607337685],[-111.584048798377,33.3570157009361],[-111.583975794658,33.3497624171607],[-111.583906370645,33.342516829725],[-111.583836662815,33.335268402617],[-111.583769177396,33.3280326249654],[-111.583736079066,33.3244140624847],[-111.583703648643,33.3209405314629],[-111.591047926607,33.3210036479909],[-111.591031148568,33.3190414118447],[-111.592253712024,33.3190508004959],[-111.592204469913,33.3136119457841],[-111.592165182588,33.3136117728496],[-111.592153548693,33.3120466014665],[-111.594924002822,33.3120783140192],[-111.594865056988,33.3065227644331],[-111.594868286876,33.3062626463581],[-111.591998790857,33.3062377168453],[-111.583387303178,33.3061644009802],[-111.583335857964,33.3007903321745],[-111.583516231802,33.3007891467725],[-111.583508734065,33.3000449887901],[-111.583431652761,33.2918956331068],[-111.583353209759,33.2845386413386],[-111.583304661983,33.2774969698728],[-111.58330394173,33.2773461190602],[-111.591735960151,33.2773961539831],[-111.600343068405,33.2774455549712],[-111.600345469957,33.2775964524437],[-111.609016383557,33.2776539356963],[-111.617680770292,33.2777107984832],[-111.626279593425,33.2778081310225],[-111.634639514046,33.2778949699033],[-111.634619796494,33.2778782631411],[-111.63458707414,33.2778779201833],[-111.634584457372,33.27759203213],[-111.635148485045,33.2775973143143],[-111.635140176148,33.2778995916746],[-111.643528574159,33.2779681369801],[-111.652200684969,33.2780501026477],[-111.660809573423,33.2780901001874],[-111.668878580766,33.2781256772859],[-111.669420811588,33.2784620690745],[-111.673941724316,33.2812716635182],[-111.678116641322,33.2838660476035],[-111.684203045893,33.2876512183579],[-111.686297310797,33.2889523912883],[-111.686355159334,33.2893565224039],[-111.686387095905,33.2896969203055],[-111.686399190094,33.2900382221603],[-111.686440444464,33.2927340010939],[-111.686563741688,33.2999650631854],[-111.686589232744,33.3014922654207],[-111.686641816113,33.3016845756605],[-111.686708720074,33.301873722831],[-111.686789679025,33.3020589557751],[-111.686884371541,33.3022395388756],[-111.686962593914,33.3023661128113],[-111.687148724248,33.3026118274531],[-111.687360663099,33.302842330562],[-111.688202954047,33.3036739164106],[-111.68841663445,33.3039112864657],[-111.688596422078,33.3041676997213],[-111.688739935498,33.3044397602091],[-111.688845273637,33.3047238646945],[-111.688911040982,33.3050162503943],[-111.688936366078,33.3053130448079],[-111.688920913094,33.3056103170047],[-111.688864886289,33.3059041296866],[-111.688531371853,33.3070303863673],[-111.686501944066,33.3070403870332],[-111.68650694607,33.3073429557317],[-111.688406575041,33.3073344785978],[-111.688341538907,33.3075656042406],[-111.688248379711,33.307970716357],[-111.687859522643,33.3089105197215],[-111.68733284907,33.3099461681638],[-111.687183746408,33.3102448407952],[-111.687003037447,33.3106059376489],[-111.686824169247,33.3110143304687],[-111.686697751819,33.3114363179302],[-111.68662520429,33.3118671654693],[-111.68660734143,33.3123020390457],[-111.686643673531,33.3144269211046],[-111.686762489598,33.3214268213039],[-111.686766500248,33.3216550615812],[-111.686931045539,33.3216564363072],[-111.687061992441,33.3216554863153],[-111.687181133927,33.3288766545259],[-111.686869033316,33.3288778963237],[-111.686988897283,33.3361888640045],[-111.687072971716,33.3409092018471],[-111.687116090175,33.3433300518356],[-111.687084725513,33.3433298099101],[-111.687131630093,33.3459607112444],[-111.687162929049,33.3459609683679],[-111.687244855292,33.3505636860605],[-111.687365482483,33.3577870722325],[-111.687430018352,33.3614038380088],[-111.687739611745,33.3614006499839],[-111.68776872398,33.363081260866],[-111.687745230726,33.3630487252737],[-111.687779267508,33.3650136561951],[-111.687851328056,33.3650133507913],[-111.687974002714,33.3722618857319],[-111.688091303189,33.3791931745971],[-111.688098056331,33.3795504821276],[-111.693556151554,33.3795329276762],[-111.693556219254,33.3795059955412],[-111.702086837805,33.3794798112322],[-111.702303056598,33.3794774364111],[-111.710836942545,33.3794534047875],[-111.718161995852,33.3794323559833],[-111.718149521364,33.3810209874252],[-111.718063038841,33.3810203585505],[-111.718046374129,33.382610173123],[-111.718133111686,33.3826108889845],[-111.71809512699,33.385814093679],[-111.719087948993,33.3857524637953],[-111.719240875015,33.3847660227075],[-111.719601243712,33.3847693438076],[-111.719739906437,33.385753499925],[-111.721210740765,33.3858300337426],[-111.72768568769,33.385801297914],[-111.727843549188,33.3848640796707],[-111.727856646063,33.3838472210757],[-111.727849089077,33.3835079544127],[-111.727808047321,33.3831703798814],[-111.72773380348,33.3828368194355],[-111.727626868599,33.3825095673929],[-111.727405156317,33.3819923090659],[-111.7272773135,33.3816462765725],[-111.727186752728,33.3812920599425],[-111.727134194804,33.3809324802849],[-111.727120057842,33.3805704013877],[-111.727137592647,33.3794023619175],[-111.728140588081,33.3793984429947],[-111.732260106968,33.3793881418059],[-111.73354265058,33.379381796211],[-111.736831708032,33.3793756112769],[-111.743213298772,33.3793462168092],[-111.745375435409,33.3793382265393],[-111.748245182659,33.3793256630058],[-111.75395849933,33.3793002908598],[-111.756864305967,33.3792875644936],[-111.762626778644,33.3792618476124],[-111.767259029462,33.3792427577118],[-111.767252735042,33.3790915855063],[-111.767282218332,33.3790916209919],[-111.767275928578,33.3789377021779],[-111.766879529096,33.378942722205],[-111.766879576213,33.3789152381108],[-111.771243180137,33.3788956759298],[-111.773970336366,33.3788822251439],[-111.780085034393,33.3788617134942],[-111.782564947567,33.3788506663212],[-111.788366696211,33.3788265452819],[-111.790214342094,33.3788201896976],[-111.796995600593,33.3787939072923],[-111.798728587506,33.3787873143784],[-111.805683466818,33.3787607221805],[-111.807239552363,33.3787538530511],[-111.814276351375,33.3787048624408],[-111.816051924908,33.3786980627898],[-111.82292162741,33.3786621904101],[-111.824861002153,33.3786498906112],[-111.828379390784,33.3786276945478],[-111.831534144286,33.3786106485334],[-111.833617647661,33.3786093043561],[-111.840099115826,33.3786005310998],[-111.840946276308,33.3786010480619],[-111.841401304208,33.3786015971165],[-111.841850659444,33.3779532366638],[-111.842071567021,33.3775987577024],[-111.842249220373,33.3772275569983],[-111.842381847442,33.3768433383807],[-111.842468125493,33.3764499355221],[-111.842285252958,33.3715001640226],[-111.842022818475,33.3642166373535],[-111.84201930415,33.3633374080717],[-111.842013400036,33.3612336788347],[-111.842001692302,33.3570626971637],[-111.850539965294,33.3570867452266],[-111.850539341886,33.3570457935007],[-111.854833010816,33.3571029582125],[-111.854833023063,33.357085638975],[-111.856939246196,33.3571147015835],[-111.856939188564,33.3571990777511],[-111.858917370281,33.357209625815],[-111.859097570635,33.3572105850582],[-111.859097553288,33.3571324775778],[-111.859228559749,33.3571325373459],[-111.859309781985,33.3571342241281],[-111.867820294701,33.3570394378584],[-111.876356992059,33.3569429766824],[-111.876429044293,33.356943000052],[-111.876537123718,33.3569430341267],[-111.876814202627,33.3569389998205],[-111.885416887715,33.3568573003528],[-111.89390525895,33.3568482708891],[-111.893928455424,33.3568482453825],[-111.894335144786,33.3568477979985],[-111.89436067922,33.3573412699286],[-111.894368103949,33.3576452809712],[-111.8944257256,33.3630075111578],[-111.894317502765,33.3635516854213],[-111.894297780011,33.363832022173],[-111.89409454057,33.3644833684978],[-111.893778389609,33.3711730243255],[-111.893495182144,33.3769584401659],[-111.893429559076,33.3773651966942],[-111.893295515623,33.3775880712271],[-111.893213390643,33.3784538131788],[-111.893285461697,33.378453826775],[-111.89326233586,33.379195901802],[-111.893258525917,33.3792474555736],[-111.893253644427,33.3792989460228],[-111.893247692468,33.3793503578204],[-111.893240673266,33.3794016738344],[-111.893232585749,33.3794528787354],[-111.893223434218,33.3795039589981],[-111.89320391902,33.3795971625851],[-111.893194834011,33.3796525503357],[-111.893184597931,33.3797077962986],[-111.893173214006,33.3797628833416],[-111.893160686536,33.3798177961362],[-111.89314701875,33.3798725166482],[-111.893132213874,33.3799270277454],[-111.893116278359,33.379981315903],[-111.893099214357,33.3800353612833],[-111.893081029394,33.3800891476565],[-111.893061728847,33.3801426614973],[-111.893041319167,33.3801958838706],[-111.893019803581,33.3802487994473],[-111.89299719069,33.380301391096],[-111.892973486946,33.3803536434882],[-111.892948699873,33.3804055421973],[-111.892922837,33.38045706919],[-111.892895906927,33.3805082100397],[-111.892867916105,33.3805589485163],[-111.892832804172,33.3806195124757],[-111.892680164416,33.3808541265491],[-111.892416581877,33.3812378321857],[-111.892312053727,33.381353192062],[-111.89220514073,33.3814670040406],[-111.892005646246,33.3816689822734],[-111.888617550202,33.3837268533913],[-111.887706592279,33.3843120650037],[-111.887672568597,33.3843331048076],[-111.887638111903,33.3843536431493],[-111.887603234021,33.384373674621],[-111.887567943554,33.3843931929123],[-111.887532252326,33.384412190812],[-111.887496172164,33.3844306629122],[-111.887459712744,33.3844486038046],[-111.88742288589,33.3844660098848],[-111.887385702354,33.384482872138],[-111.887348173962,33.3844991878615],[-111.887310310388,33.3845149516469],[-111.887272126683,33.3845301598907],[-111.887233631449,33.384544805381],[-111.887194837584,33.3845588854153],[-111.887155755841,33.3845723945858],[-111.887116400193,33.384585331092],[-111.887076781391,33.3845976886243],[-111.887036911261,33.3846094635784],[-111.886996802703,33.3846206532521],[-111.886956465392,33.3846312540404],[-111.886915915452,33.384641263242],[-111.886875163635,33.3846506772525],[-111.886834221765,33.3846594924675],[-111.886793101667,33.3846677070863],[-111.886740001863,33.3846773795761],[-111.884364633598,33.3850670709108],[-111.883817129896,33.3852092984036],[-111.881638237406,33.3857748870613],[-111.880842114246,33.3857801593608],[-111.880625794403,33.3859999726821],[-111.880281604395,33.3864533653047],[-111.880176696783,33.3866209896391],[-111.879924265287,33.3870084453049],[-111.879734080169,33.3873959189704],[-111.879622565418,33.3876872204093],[-111.879599500911,33.3879977861821],[-111.879895619189,33.3928818384266],[-111.87989887828,33.3929230655784],[-111.879938088016,33.3931841790666],[-111.880052651151,33.3934587809237],[-111.880180350673,33.3936622019321],[-111.880337526515,33.3938986123787],[-111.880475055623,33.3941075327708],[-111.881093979057,33.3949542261356],[-111.882852572718,33.3973650859398],[-111.883959510107,33.3989127447469],[-111.88423460919,33.3993085906532],[-111.884336128686,33.3994707733099],[-111.884395076769,33.3995614861686],[-111.884660331588,33.4000067998983],[-111.884810966489,33.4002734361612],[-111.884945220626,33.4005345703237],[-111.88598657102,33.40245048292],[-111.88755820554,33.406265673585],[-111.888062509399,33.4073596628993],[-111.888164013049,33.4076207866343],[-111.888184319771,33.4076581697989],[-111.888521625394,33.4083783326969],[-111.888630635904,33.4087471964686],[-111.888699352943,33.4090687772129],[-111.888718867122,33.4095415109164],[-111.888687252381,33.4100304484699],[-111.88855277862,33.4103877134046],[-111.888149477022,33.4110499931829],[-111.888018332226,33.4112313594647],[-111.887690473325,33.4116682841144],[-111.887629276891,33.4117435082724],[-111.887596088172,33.4117821584996],[-111.887562100727,33.4118203152964],[-111.88752732316,33.4118579696471],[-111.887491768375,33.4118951098319],[-111.887455446055,33.4119317223267],[-111.887418368029,33.4119677981166],[-111.886857787485,33.41250360887],[-111.885589080556,33.4137126086296],[-111.884601952344,33.4146690866233],[-111.884346221972,33.4149427631623],[-111.883660996419,33.4156656957551],[-111.883110215793,33.4161602649131],[-111.882008599728,33.4172483400159],[-111.880379236081,33.4184626819458],[-111.8787399934,33.4196824950994],[-111.878136670028,33.4202924603749],[-111.877142818236,33.4220071636405],[-111.877015228526,33.4222105062835],[-111.877651081984,33.4222079576967],[-111.882885727193,33.4221874893047],[-111.882722689359,33.429371809099],[-111.888730676022,33.4293243686212],[-111.890038540495,33.4293136581947],[-111.891765932684,33.4293002578887],[-111.891892770007,33.4330309940088],[-111.891894433068,33.4330787134344],[-111.892022855921,33.4367633649922],[-111.892023353645,33.4368174402656],[-111.892056590197,33.4404344248395],[-111.887676829485,33.4404252458191],[-111.883238063728,33.4404131478407],[-111.878786181877,33.4404063837679],[-111.874331023727,33.4403994596666],[-111.874129532219,33.4367440040164],[-111.86934444292,33.4367233527802],[-111.869349515256,33.436849579704],[-111.868246235334,33.4374190729379],[-111.867640236656,33.437770907718],[-111.867369010647,33.4379879258985],[-111.866744741757,33.4387520105036],[-111.865867130215,33.4399540862738],[-111.865500057359,33.4403620750758],[-111.865276808379,33.4403603344534],[-111.865165517285,33.4367049026482],[-111.85639492176,33.4366624982431],[-111.856456243734,33.4428601917591],[-111.860930204513,33.4428798601577],[-111.860974408297,33.4440006810899],[-111.856462033339,33.4439815447478],[-111.856461948981,33.444105223129],[-111.854515982574,33.4441266839546],[-111.854528613748,33.4455619985407],[-111.854497472161,33.4455782307059],[-111.854068943861,33.4458577204701],[-111.853378664693,33.4463079200413],[-111.853320547991,33.4463559276492],[-111.853158875835,33.4464894772178],[-111.852710086085,33.4468905148306],[-111.852164728175,33.4475315300679],[-111.852164616212,33.4476842485709],[-111.852188244489,33.4512297042427],[-111.847988257493,33.4512412027559],[-111.847988171916,33.4513511381461],[-111.84813615749,33.4549846094905],[-111.839584936444,33.4550758060273],[-111.836207754201,33.4550791662864],[-111.835918868232,33.4554610074521],[-111.835620128356,33.4558565824946],[-111.835419646163,33.4563676551221],[-111.835084578351,33.4570380451177],[-111.834670453232,33.4580931590535],[-111.833715703688,33.458708168834],[-111.833715592222,33.4588263491968],[-111.835397705808,33.4588164651772],[-111.835469762398,33.4624471477769],[-111.831223284601,33.4625020215639],[-111.826749287273,33.4625038167222],[-111.826779411317,33.4663851248717],[-111.826389249424,33.466394806936],[-111.822399562413,33.4664937428383],[-111.822050706932,33.4664927169406],[-111.813571849866,33.466467500609],[-111.804881899736,33.4664352564083],[-111.79630024495,33.4663502872803],[-111.796172354922,33.4663501639419],[-111.787292312692,33.4662615343025],[-111.787294465083,33.4736794475497],[-111.787296893485,33.4809104611828],[-111.778867775556,33.4809563644263],[-111.779046524077,33.4736595919763],[-111.779088509917,33.4719858688775],[-111.775175031539,33.4719839324669],[-111.77512044692,33.4720472892449],[-111.775008862837,33.4722495252516],[-111.774801560728,33.4724857754814],[-111.774796429057,33.4728037018275],[-111.778782146561,33.472801181558],[-111.77878292419,33.4730037983602],[-111.777829779428,33.4739797822013],[-111.776852029359,33.4750169388822],[-111.775878055382,33.4760653108458],[-111.775215241319,33.4765938820842],[-111.771246106052,33.4765709475333],[-111.771159041374,33.4764573442642],[-111.77118504892,33.4764444507712],[-111.771346420234,33.4763528500328],[-111.771495670512,33.4762527463122],[-111.771632135591,33.4761456005263],[-111.771754711335,33.4760360578705],[-111.771864737268,33.4759241812661],[-111.771959214574,33.4758132791787],[-111.772252723689,33.475416334691],[-111.772208654254,33.4754156647745],[-111.772300339548,33.4752865755396],[-111.772446180705,33.4750927623217],[-111.772580136448,33.4749234693865],[-111.772742152615,33.4747340442327],[-111.770386466814,33.4746960663191],[-111.770345827084,33.4764773649218],[-111.770339384371,33.4767633277608],[-111.77033664383,33.4769054283342],[-111.770294506354,33.4787244000991],[-111.770781497538,33.4794109434539],[-111.771707173766,33.4804507639189],[-111.771866620055,33.4806627668719],[-111.773139718813,33.4806622017307],[-111.773140558973,33.4809370388238],[-111.776917605672,33.4809288937032],[-111.776918756318,33.4812999231817],[-111.775632167006,33.4821341551335],[-111.771089393372,33.4820220695681],[-111.770279557585,33.4824911337649],[-111.770199635687,33.4825193147237],[-111.767660615299,33.4834145999766],[-111.765926716761,33.4836909486807],[-111.765927346275,33.4831324508081],[-111.765269194265,33.4833092565026],[-111.765276745604,33.4828530292887],[-111.765927659221,33.482854864127],[-111.765929419433,33.4812912668535],[-111.765936751587,33.4810209860531],[-111.765202192602,33.4810188065355],[-111.765202109794,33.4810379467375],[-111.76195340699,33.4810292361939],[-111.7619282071,33.4819413946575],[-111.761866268697,33.4819401928973],[-111.761850512872,33.4819609464878],[-111.761847062575,33.482085826159],[-111.761162351603,33.4821587776829],[-111.760475438266,33.4822153569489],[-111.760363209873,33.482217466098],[-111.760324345886,33.4845422103644],[-111.752901921607,33.4845243977396],[-111.744285283631,33.4846941064029],[-111.735780234087,33.4846621845243],[-111.735652273928,33.4846839846283],[-111.735058120332,33.4849194758166],[-111.73281146451,33.4864387624881],[-111.732244857548,33.4876004845257],[-111.731457098305,33.4878631527686],[-111.729707783538,33.4868271336665],[-111.729043549093,33.4860813174319],[-111.728220853132,33.4858162243167],[-111.727351044748,33.4861034761417],[-111.726726994927,33.4864982876814],[-111.726424364192,33.4868990865906],[-111.726140104004,33.4878990591628],[-111.725317403624,33.4891290641711],[-111.72371464641,33.4900720188327],[-111.723388956422,33.4905057544973],[-111.723410688235,33.491060960425],[-111.72370136167,33.4916303289915],[-111.72299613078,33.4931078540573],[-111.720016160917,33.4937875020386],[-111.719697588059,33.4939601437431],[-111.719358306074,33.4945862330457],[-111.719511853223,33.4954447946937],[-111.719503728167,33.4961373731328],[-111.718238866895,33.496987348459],[-111.718225726701,33.4969955724959],[-111.717174449588,33.4976782269211],[-111.7166254487,33.4981912877463],[-111.71471918164,33.5011729426824],[-111.712987028641,33.5025882877778],[-111.710140449502,33.5049444597682],[-111.709542682666,33.5052320437647],[-111.708386855281,33.5056616051565],[-111.706647219118,33.5060214567699],[-111.704801949076,33.5066422015257],[-111.70421393581,33.5069545133421],[-111.703357187281,33.5071481771017],[-111.702575803855,33.5073776946852],[-111.701629869356,33.5078130519857],[-111.701041768676,33.5081528329324],[-111.7010416528,33.508199555647],[-111.700604077869,33.5084299336375],[-111.700305745902,33.5086050362168],[-111.699030480267,33.5095290156311],[-111.698826641687,33.5096990579709],[-111.698704996345,33.5098005348777],[-111.698609624923,33.5098910654008],[-111.698043906159,33.5104523923452],[-111.698030750276,33.5104652858445],[-111.698017266778,33.5104779046503],[-111.698004111576,33.510490524034],[-111.69799062807,33.5105031428368],[-111.69797714525,33.5105154875254],[-111.697963334512,33.5105281057475],[-111.697949523385,33.5105404489518],[-111.697935713331,33.5105527921563],[-111.697921902887,33.5105648612448],[-111.697908091749,33.5105772044443],[-111.697893954074,33.51058927205],[-111.69787981532,33.5106013396521],[-111.697865677633,33.510613409058],[-111.697851212338,33.5106252010645],[-111.697837074264,33.5106369936473],[-111.697822607883,33.5106487865502],[-111.697808142574,33.5106605794533],[-111.69779334896,33.5106723717746],[-111.697778884338,33.5106838887582],[-111.697764091409,33.5106954060616],[-111.697749299168,33.5107066483488],[-111.69773417793,33.5107181650685],[-111.697719385681,33.5107294073521],[-111.697704265128,33.5107406490536],[-111.69768914457,33.5107518907533],[-111.6976736964,33.5107628568564],[-111.697658577602,33.5107738244415],[-111.697643129424,33.5107847905407],[-111.697627681242,33.510795756638],[-111.697612234826,33.5108064477208],[-111.697596787328,33.5108171397015],[-111.6975810126,33.5108278311015],[-111.697565236794,33.5108385215959],[-111.697549462754,33.5108489370758],[-111.697533687632,33.5108593534535],[-111.697517585283,33.5108697683486],[-111.69750181192,33.5108799106113],[-111.697485709563,33.5108903255022],[-111.697469279208,33.5109001906812],[-111.697453177535,33.5109103314551],[-111.697437076554,33.5109201963109],[-111.697420646568,33.5109303374012],[-111.697404217969,33.510939927559],[-111.697387788672,33.5109497927289],[-111.697371031763,33.5109593823011],[-111.697354603153,33.5109689724522],[-111.697337846237,33.5109785620199],[-111.697334889506,33.5109802068787],[-111.697321090008,33.5109878774726],[-111.697304334855,33.5109971920233],[-111.69728757862,33.5110065074714],[-111.697270494081,33.5110158214341],[-111.697253738534,33.5110248609616],[-111.697236655756,33.5110339008089],[-111.697219572592,33.5110426656376],[-111.697202161505,33.5110517048985],[-111.697185078336,33.5110604688207],[-111.697167667936,33.5110692330624],[-111.69715025715,33.5110777222853],[-111.697133174664,33.5110862120876],[-111.697115436645,33.5110947007258],[-111.697098026925,33.5111031899432],[-111.697080616821,33.511111404142],[-111.697062879486,33.5111196177582],[-111.697045142149,33.5111278313719],[-111.6970274055,33.5111357708704],[-111.697009667774,33.5111437094628],[-111.696991931119,33.5111516489561],[-111.696973866856,33.5111593119487],[-111.696955802586,33.5111669758403],[-111.696938066619,33.5111746394099],[-111.696920002344,33.5111823032962],[-111.696901938763,33.5111896912639],[-111.696883546873,33.5111970795482],[-111.696865483979,33.5112041933979],[-111.696847092083,33.5112115816767],[-111.696829029183,33.511218695521],[-111.696810638672,33.5112255337658],[-111.696792247463,33.5112326470221],[-111.696773858022,33.5112394852633],[-111.696755139895,33.5112460479026],[-111.696736749373,33.5112528861363],[-111.69671803124,33.5112594487701],[-111.69669964248,33.5112660137892],[-111.696680923961,33.5112723014011],[-111.696662206516,33.5112785890121],[-111.696643490143,33.5112848775238],[-111.696624773386,33.5112908910164],[-111.696605729402,33.5112969030233],[-111.69658701264,33.5113029165102],[-111.696567968651,33.5113089285112],[-111.696549252581,33.5113146669781],[-111.69653020928,33.5113204048606],[-111.696511165598,33.511325867724],[-111.696492122987,33.511331331488],[-111.6964730793,33.5113367943455],[-111.696453708383,33.5113422566184],[-111.696434666464,33.5113474444576],[-111.693356375187,33.5122981015077],[-111.692745174496,33.5112566552125],[-111.692079802883,33.5101242721837],[-111.689349479411,33.5091188679222],[-111.686600304665,33.5078220349543],[-111.686899903981,33.5061845381266],[-111.685264980871,33.5041449199544],[-111.684438875619,33.5039152545832],[-111.684091380882,33.5038211560202],[-111.684097949323,33.502592627628],[-111.684100859157,33.4953580576595],[-111.683704928582,33.4953567720194],[-111.675895616403,33.495322036845],[-111.667225908875,33.4952850570877],[-111.658548394036,33.4952192053997],[-111.64986827297,33.4951579332941],[-111.641224787264,33.4951335124185],[-111.632581329879,33.4951029919869],[-111.632575448085,33.4878472882663]],[[-111.642313445241,33.4806102357639],[-111.642308838525,33.4788936491932],[-111.643392760962,33.4788969184151],[-111.643392623634,33.4787597046888],[-111.640830482872,33.4787513214044],[-111.640830228303,33.478819766592],[-111.636898231614,33.4788008159061],[-111.636897914025,33.4769867655369],[-111.650005010123,33.4770421398906],[-111.650005395185,33.4788474672486],[-111.653121031704,33.4788651291946],[-111.654204287426,33.4788719732436],[-111.654205131727,33.4770650459573],[-111.656364393569,33.4770756479789],[-111.656366525945,33.4788848232621],[-111.657449470245,33.4788913028653],[-111.657451239754,33.4770809508752],[-111.658537832192,33.4770862482218],[-111.658532100562,33.4734548002444],[-111.667260528894,33.4735045916212],[-111.667235732391,33.4664215786222],[-111.66730152504,33.466421612699],[-111.667305504709,33.4652174297869],[-111.666993988329,33.4652162239014],[-111.666538918629,33.4650939932508],[-111.666544702868,33.4643438990727],[-111.667309592805,33.4643461504753],[-111.667309913045,33.4642778917994],[-111.669342938874,33.464289288846],[-111.669356384631,33.462320372751],[-111.671519981854,33.4623213750983],[-111.671531782396,33.4586896709855],[-111.671532140141,33.4585797511792],[-111.667333286681,33.458581495236],[-111.66735936242,33.453255335177],[-111.665063633916,33.4532485609297],[-111.665072797722,33.4515875443612],[-111.662904894097,33.4515831247795],[-111.662867866169,33.4586848807924],[-111.658543003363,33.4586759475693],[-111.654221420291,33.4586668704235],[-111.649893277425,33.4586592777297],[-111.649761138754,33.4586589933343],[-111.649757594847,33.4594964184622],[-111.648994923321,33.4594928490863],[-111.648987510764,33.459492668072],[-111.64898237923,33.4594923585311],[-111.648977264292,33.4594918993441],[-111.648972172405,33.4594912905251],[-111.648967107869,33.4594905329851],[-111.648962078209,33.4594896285435],[-111.64895708988,33.4594885772145],[-111.648952147182,33.4594873799089],[-111.648947258713,33.4594860393505],[-111.648942427697,33.4594845564479],[-111.648937662732,33.4594829339248],[-111.648932967046,33.4594811717881],[-111.648928348155,33.4594792745626],[-111.648923810361,33.4594772422576],[-111.648919361182,33.4594750793977],[-111.648915003842,33.4594727868918],[-111.648910744784,33.4594703683604],[-111.648906589377,33.459467827422],[-111.648902541917,33.4594651658892],[-111.648899835448,33.4594633638643],[-111.648895666275,33.4594607516618],[-111.648891391299,33.459458262763],[-111.648887015889,33.4594558998847],[-111.648882544337,33.4594536666429],[-111.648877982014,33.4594515657542],[-111.648873335366,33.4594495999378],[-111.648868609767,33.4594477710085],[-111.648863810589,33.4594460807814],[-111.648858944277,33.4594445328771],[-111.648854017284,33.4594431273097],[-111.648849033902,33.4594418676951],[-111.648844000587,33.4594407540473],[-111.648838924859,33.4594397890875],[-111.648833811026,33.4594389719235],[-111.648828667681,33.4594383061806],[-111.648823499133,33.4594377900646],[-111.64881831183,33.4594374262946],[-111.648813113302,33.4594372139852],[-111.64881714563,33.4586569566272],[-111.643405339564,33.4586443164056],[-111.64339400611,33.4622652846251],[-111.643857831655,33.4622665829683],[-111.643857771565,33.4623355670915],[-111.644472589639,33.4623371898952],[-111.644466428403,33.46420800333],[-111.645469824607,33.4642129516651],[-111.645462759597,33.465959257448],[-111.641219233997,33.4659364299783],[-111.641188411002,33.4659360864712],[-111.64115627635,33.465935465926],[-111.641124471782,33.4659345692856],[-111.641092667003,33.4659333994228],[-111.641060863095,33.4659319545367],[-111.641028732133,33.4659305089153],[-111.640996929969,33.4659285139825],[-111.640965127804,33.4659265199433],[-111.640933327589,33.4659242499814],[-111.640901527168,33.4659217058955],[-111.640869727621,33.4659188867863],[-111.640838257282,33.4659160684014],[-111.640806459478,33.4659127001473],[-111.64077498981,33.4659093317137],[-111.640743193754,33.4659054134131],[-111.64071172691,33.4659014949355],[-111.640680259862,33.465897302334],[-111.640648793686,33.4658928356111],[-111.640617328388,33.4658880929634],[-111.640585863093,33.4658833503077],[-111.640554399543,33.4658780585154],[-111.640523264127,33.465872767446],[-111.640492129591,33.465867200452],[-111.640460995927,33.4658613593367],[-111.640429863138,33.4658552441001],[-111.640398730356,33.4658491279541],[-111.640367927451,33.4658424634029],[-111.640337123475,33.4658357988418],[-111.640306321452,33.4658288592602],[-111.640275520308,33.4658216446558],[-111.640244720041,33.4658141550286],[-111.640214246629,33.4658063920073],[-111.64018377625,33.4657983530664],[-111.640153304797,33.4657903150174],[-111.6401228353,33.4657820019482],[-111.640092693737,33.465773414586],[-111.640062554125,33.4657645531054],[-111.640032741578,33.4657556914456],[-111.640002602651,33.4657462799178],[-111.639972791863,33.4657368682133],[-111.639942981953,33.4657271823882],[-111.639913501054,33.4657172222734],[-111.639884021035,33.4657069871364],[-111.639854541021,33.4656967528941],[-111.639825062765,33.4656859677128],[-111.639795912644,33.4656751841591],[-111.639766763404,33.4656641255833],[-111.63973794015,33.465653067729],[-111.639709120801,33.4656414607441],[-111.639680300387,33.4656298528484],[-111.639651810061,33.4656179706666],[-111.639623319539,33.4656058143623],[-111.639594829026,33.4655936580516],[-111.639569616117,33.4655823332101],[-111.639566668399,33.4655809524374],[-111.639538835914,33.4655682466487],[-111.639510677252,33.4655552669108],[-111.63948284458,33.4655422869937],[-111.639455342869,33.4655287586779],[-111.639427841167,33.465515230356],[-111.639400339273,33.4655014270104],[-111.639373165517,33.4654876243928],[-111.639345994597,33.4654732717412],[-111.639319150739,33.4654589198155],[-111.639292307963,33.465444568788],[-111.639265794004,33.4654296675546],[-111.639239280051,33.4654147672172],[-111.639213095113,33.4653995925934],[-111.639186911062,33.4653841420472],[-111.639161054069,33.465368694031],[-111.63913519884,33.4653526950774],[-111.639109671948,33.4653369718706],[-111.639084145741,33.4653206995276],[-111.639058948747,33.4653044279165],[-111.639033751563,33.4652878812827],[-111.639008882518,33.4652713353788],[-111.638984015236,33.4652542394395],[-111.638959476089,33.465237145132],[-111.638934936954,33.465220049918],[-111.638910725756,33.4652026813184],[-111.638886844651,33.4651850375349],[-111.638862963357,33.4651671187292],[-111.638839410199,33.465149201556],[-111.638815859003,33.4651310093655],[-111.638792634866,33.4651128188053],[-111.638769740625,33.4650940780444],[-111.638746845516,33.4650756122943],[-111.638723951093,33.465056597409],[-111.638701712935,33.4650375839909],[-111.638679475863,33.4650185705713],[-111.638657239678,33.4649992821324],[-111.638635331433,33.4649797194079],[-111.638613751325,33.4649601574155],[-111.638592500232,33.4649403211402],[-111.63857124895,33.4649202098436],[-111.638550326882,33.464900099282],[-111.638529404622,33.4648797146008],[-111.638508811575,33.4648593306548],[-111.637713570353,33.4640533666158],[-111.637706706066,33.4640464802496],[-111.637699842857,33.4640395938854],[-111.637693306696,33.4640327082568],[-111.637686442413,33.4640258218894],[-111.637679578131,33.4640189355217],[-111.63767271385,33.4640120491535],[-111.637665848689,33.4640054378002],[-111.63765898441,33.4639985514313],[-111.637652121208,33.4639916650645],[-111.637644928808,33.4639847779563],[-111.637638063652,33.4639781666014],[-111.637631199377,33.463971280231],[-111.63762433618,33.4639643938626],[-111.637617142903,33.463957781768],[-111.637610278631,33.4639508953964],[-111.637603413483,33.4639442831379],[-111.637596222166,33.4639373960293],[-111.637589357017,33.4639307846718],[-111.637582163746,33.4639241725751],[-111.637575300558,33.4639172853023],[-111.637568106213,33.4639106732024],[-111.637560912948,33.4639040602029],[-111.637554048686,33.4638971738281],[-111.637546856495,33.4638905617319],[-111.63753966323,33.4638839496328],[-111.63753279809,33.463877338272],[-111.637525605903,33.4638707261745],[-111.637518412644,33.4638641131725],[-111.637511220459,33.4638575010741],[-111.6375040272,33.463850888973],[-111.637496833941,33.4638442768714],[-111.63748964176,33.4638376647718],[-111.637482448506,33.4638310517676],[-111.637475256327,33.4638244396672],[-111.637468063073,33.4638178275639],[-111.637460542773,33.4638112147237],[-111.637453348642,33.463804876733],[-111.637446155392,33.4637982646285],[-111.637438963218,33.4637916525259],[-111.637431440968,33.463785313795],[-111.637424248796,33.4637787016916],[-111.637416726545,33.4637723638614],[-111.6374095333,33.4637657517547],[-111.637402011054,33.463759413022],[-111.637394818887,33.4637528009168],[-111.63738729664,33.4637464630849],[-111.637380104478,33.4637398500772],[-111.637372582234,33.4637335122443],[-111.637365061069,33.4637271735118],[-111.63735590458,33.4637191827947],[-111.637350346666,33.4637142235703],[-111.637342824429,33.463707884834],[-111.637335303266,33.4637015470013],[-111.637327781029,33.4636952091657],[-111.637320259871,33.4636888704304],[-111.637312738711,33.4636825325963],[-111.637305216482,33.463676192956],[-111.637297695325,33.463669855121],[-111.637290173092,33.4636635172831],[-111.63728265194,33.4636571785456],[-111.637275130786,33.4636508407092],[-111.637267607677,33.4636447769835],[-111.637259758403,33.4636384384067],[-111.637252237255,33.4636320996673],[-111.637244714147,33.4636260368418],[-111.637236863803,33.4636196973595],[-111.63722934158,33.4636133595179],[-111.637221819554,33.4636072957918],[-111.637213970286,33.4636009572121],[-111.637206447186,33.4635948934827],[-111.637198597921,33.463588554902],[-111.637190747777,33.4635824904344],[-111.637183225753,33.4635764276076],[-111.637175375419,33.4635700881214],[-111.637167853397,33.4635640252937],[-111.637160003258,33.4635579608241],[-111.637152153119,33.463551896354],[-111.637144302786,33.4635455577674],[-111.63713645265,33.4635394932963],[-111.637128602512,33.4635334297264],[-111.637121079424,33.4635273659918],[-111.637113229291,33.4635213015192],[-111.637105379156,33.4635152379478],[-111.637097529026,33.4635091734743],[-111.637089678893,33.4635031099019],[-111.63708149976,33.4634973197025],[-111.637073648557,33.463491255225],[-111.637065798428,33.4634851916511],[-111.637057948302,33.4634791271751],[-111.637050096219,33.4634733377113],[-111.637041917972,33.4634672733958],[-111.63703406785,33.4634612089182],[-111.63702621577,33.4634554194529],[-111.637018037529,33.4634493542341],[-111.637010186527,33.4634435647702],[-111.637002008288,33.4634374995504],[-111.636994154639,33.4634325351311],[-111.6369989384,33.4622463444191],[-111.637983954577,33.4622493884978],[-111.637994518947,33.4586314421721],[-111.632449594109,33.4586188485984],[-111.632435592574,33.4659405025951],[-111.632435145124,33.4660779208123],[-111.632434451622,33.4733391316142],[-111.632440428477,33.4805646205286],[-111.641220153599,33.480606442093],[-111.642313445241,33.4806102357639]],[[-111.757319917998,33.4741749818963],[-111.753655508258,33.4757029536873],[-111.75371498805,33.4758795692551],[-111.753760198579,33.4760591303541],[-111.753790936144,33.4762408283013],[-111.75380706222,33.4764238447849],[-111.753808504089,33.47660735555],[-111.753795255163,33.4767905341103],[-111.753767375021,33.4769725554705],[-111.753724989138,33.4771525998422],[-111.753718805375,33.4771744722795],[-111.753717437507,33.4771792233233],[-111.753717252364,33.4771798371352],[-111.753709179898,33.4772070631659],[-111.753690236266,33.4772667062189],[-111.753690026363,33.47726732631],[-111.753690234257,33.477267779235],[-111.761697608403,33.47728407352],[-111.761767123727,33.473652439259],[-111.761786143293,33.4726423971546],[-111.759552327352,33.4733463235611],[-111.758741884531,33.4736467959303],[-111.757319917998,33.4741749818963]],[[-111.626101738424,33.4512082692393],[-111.626105620726,33.4495479417535],[-111.623940098104,33.4495444922372],[-111.623941575893,33.4477341343882],[-111.619613755685,33.4477266962345],[-111.619608504461,33.4511731415041],[-111.622855548397,33.4511764452667],[-111.622855900504,33.4504075545871],[-111.623398983339,33.450409445275],[-111.623396405334,33.4511769871775],[-111.624102817147,33.4511776920384],[-111.624103204301,33.4513555130174],[-111.625021206359,33.4513604258031],[-111.625021720452,33.4512065163408],[-111.626101738424,33.4512082692393]],[[-111.615407594181,33.4511695046488],[-111.615408155163,33.4462553946365],[-111.615408581623,33.4461317179429],[-111.615412248474,33.4460190435169],[-111.61542243411,33.4459173775195],[-111.615435899187,33.4458157203877],[-111.615449372658,33.4457113139971],[-111.615466057986,33.4456261549259],[-111.615486032238,33.445538255465],[-111.615515878501,33.4454393855754],[-111.615535852658,33.4453514861033],[-111.61555249985,33.4452773195182],[-111.615578983196,33.4452031777142],[-111.61560215857,33.4451372729958],[-111.615764313598,33.4446979248406],[-111.615780847678,33.4446567393394],[-111.615804051215,33.4445825895207],[-111.615830553107,33.4445029500472],[-111.615857091816,33.4444123180587],[-111.615873748035,33.4443354030649],[-111.615893693115,33.4442557485716],[-111.615910331375,33.4441843311787],[-111.615923681795,33.444115654184],[-111.615933762277,33.4440442199805],[-111.615947169553,33.4439590528695],[-111.615953971677,33.4438876107124],[-111.615964091109,33.4438051839994],[-111.615967633852,33.4437282380877],[-111.615974512871,33.443634809112],[-111.615978216787,33.4435111412103],[-111.6159920399,33.4404706189067],[-111.615939587698,33.4404705079554],[-111.615946891832,33.4391654280913],[-111.615932904816,33.4390905910674],[-111.615902037814,33.4389761159149],[-111.615879450155,33.4388716218977],[-111.615853499063,33.4387918560139],[-111.615830808249,33.438717594787],[-111.61581135658,33.4386543349224],[-111.61578537823,33.4385828140878],[-111.615623006537,33.4381371801997],[-111.615587335498,33.438024409225],[-111.615558155363,33.4379308935428],[-111.615532261804,33.4378346365535],[-111.61551286751,33.4377548865075],[-111.615496733423,33.4376806411302],[-111.615483885871,33.4376036544519],[-111.615474326989,33.4375239282821],[-111.615458210896,33.4374441852836],[-111.615451920633,33.4373672154265],[-111.615442322744,33.4372984826683],[-111.615439599535,33.4372325149842],[-111.61543654831,33.437166545601],[-111.615433574139,33.4370785893803],[-111.615433772492,33.437020873924],[-111.615433867458,33.4369933903744],[-111.615482711427,33.436993509001],[-111.615483232578,33.4368423494729],[-111.615485913735,33.4332117321216],[-111.61104756679,33.4332118648597],[-111.61105407404,33.4294768161225],[-111.615492214179,33.4294805818944],[-111.615500977054,33.4221824633379],[-111.607864334032,33.4221774244716],[-111.607883340875,33.4149409423073],[-111.60679856593,33.4149409859994],[-111.606817763952,33.4076737149007],[-111.606687667267,33.4076733899457],[-111.606668459493,33.4149406591615],[-111.598173475448,33.4149379699518],[-111.590412277402,33.4149344605108],[-111.590411814219,33.4115357185002],[-111.598180501112,33.4115411676954],[-111.598188906013,33.4078228110066],[-111.598188892055,33.4076469140618],[-111.602445701123,33.407646775736],[-111.602448362662,33.4051443812761],[-111.602203356738,33.4049612486776],[-111.600592426493,33.4058712731017],[-111.60058954066,33.4058728274996],[-111.600586561761,33.405874252717],[-111.600583498409,33.4058755451688],[-111.60058035814,33.4058767021692],[-111.600577150646,33.4058777192342],[-111.60057388346,33.4058785945798],[-111.60057056627,33.4058793246238],[-111.60056720768,33.4058799084863],[-111.600563817376,33.405880343487],[-111.600560405034,33.4058806296505],[-111.600556979258,33.4058807660969],[-111.60055354973,33.4058807510477],[-111.60055012612,33.4058805863307],[-111.600546717031,33.4058802710663],[-111.600543332136,33.4058798061808],[-111.600539982177,33.4058791944066],[-111.600536673604,33.4058784357602],[-111.600533417158,33.4058775329741],[-111.60053022143,33.4058764887752],[-111.60052709609,33.4058753049917],[-111.600524047571,33.4058739861484],[-111.600521086615,33.4058725349777],[-111.600518219653,33.4058709569065],[-111.600515455279,33.4058692537598],[-111.600512800992,33.4058674327706],[-111.600510264309,33.4058654966629],[-111.600507851654,33.4058634526669],[-111.600505568386,33.4058613053047],[-111.600503424158,33.4058590609129],[-111.600501422175,33.4058567249098],[-111.600498770945,33.4058531699534],[-111.600480768443,33.4058246483034],[-111.600463362499,33.4057958675788],[-111.600446557383,33.4057668359062],[-111.600430359509,33.4057375632207],[-111.600414772075,33.4057080567445],[-111.600399801493,33.4056783273145],[-111.600385453105,33.4056483839616],[-111.600371729032,33.4056182348068],[-111.600358634614,33.4055878888808],[-111.600346173038,33.4055573570125],[-111.600334348578,33.4055266464265],[-111.600323165494,33.4054957679543],[-111.600312626981,33.4054647297196],[-111.60030273515,33.4054335425484],[-111.600293494267,33.4054022154686],[-111.60028490645,33.4053707575029],[-111.600276974883,33.4053391794799],[-111.60026970169,33.4053074886188],[-111.600263088979,33.4052756966473],[-111.600257137787,33.4052438134868],[-111.60025185131,33.4052118472609],[-111.600247231658,33.4051798087954],[-111.600243279869,33.4051477080119],[-111.60023999591,33.4051155539273],[-111.600237379741,33.405083357362],[-111.600235436707,33.405051126445],[-111.60023416354,33.4050188728902],[-111.600233538323,33.4049834487966],[-111.600235228252,33.4045958840279],[-111.600331397757,33.4045772989787],[-111.600427167003,33.404557308883],[-111.600522503712,33.4045359199714],[-111.600617382054,33.404513138491],[-111.600711771896,33.4044889715797],[-111.600865571207,33.4044463194162],[-111.600867679854,33.4039615511628],[-111.600769521645,33.4038885086119],[-111.600753587288,33.4038928331889],[-111.600737515204,33.4038971898744],[-111.600721114226,33.4039018207399],[-111.600705042139,33.4039061774213],[-111.600688970053,33.4039105331988],[-111.600672570065,33.4039148890409],[-111.600656496898,33.4039192457132],[-111.600640097903,33.4039233265341],[-111.600624025808,33.4039276832048],[-111.60060762681,33.4039317640214],[-111.600591227811,33.4039358448358],[-111.60057482881,33.403939925648],[-111.6005587587,33.4039437322764],[-111.600542359696,33.4039478130843],[-111.600525962762,33.4039516188759],[-111.600509563755,33.4039556996794],[-111.60049316574,33.4039595063655],[-111.600476768722,33.4039630371308],[-111.600460370708,33.4039668429109],[-111.600443972691,33.4039706486888],[-111.600427575667,33.4039741803493],[-111.600410850747,33.4039777102702],[-111.60039445372,33.4039812419263],[-111.600378056695,33.4039847726786],[-111.600361331772,33.4039883025928],[-111.600344935737,33.4039915592254],[-111.600328210811,33.4039950891351],[-111.600311814774,33.4039983457633],[-111.600295090839,33.4040016015534],[-111.600278694803,33.4040048572755],[-111.600261971863,33.4040078380441],[-111.600245575821,33.4040110946636],[-111.600228852881,33.404014074526],[-111.600212131013,33.4040170552907],[-111.600195735964,33.4040200368866],[-111.600179013018,33.404023017644],[-111.600162290071,33.4040259983991],[-111.60014556812,33.4040287041351],[-111.600128845174,33.4040316839841],[-111.60011212322,33.4040343897155],[-111.600095402341,33.4040370954475],[-111.60007868138,33.4040395270592],[-111.600061959424,33.4040422327839],[-111.600045237467,33.4040449385063],[-111.600028516506,33.4040473692096],[-111.600011795545,33.4040497999105],[-111.599995075657,33.4040522306121],[-111.599978354691,33.4040546622102],[-111.599961307902,33.4040568170534],[-111.599944586937,33.4040592477453],[-111.599927868041,33.4040614043225],[-111.599911148072,33.404063559993],[-111.599894100206,33.4040657148241],[-111.59987738123,33.4040675963749],[-111.599860334437,33.4040697512041],[-111.59984361546,33.4040716327503],[-111.599826896482,33.4040735142942],[-111.599809848611,33.4040756691138],[-111.59979313063,33.4040772756363],[-111.599776084832,33.404079155437],[-111.599759365851,33.4040810369718],[-111.599742319971,33.40408264265],[-111.599725603063,33.4040842491661],[-111.599708557185,33.4040858539379],[-111.599691511303,33.4040874596091],[-111.599674794317,33.4040887910987],[-111.599657749509,33.404090396768],[-111.599640704625,33.4040917274153],[-111.599623987637,33.404093058898],[-111.599606943826,33.4040943895434],[-111.59958989894,33.4040957201837],[-111.59957318295,33.4040967766428],[-111.599556139138,33.4040981072812],[-111.59953909525,33.4040991628976],[-111.599522051358,33.4041002194134],[-111.599505336441,33.404101275866],[-111.599488292551,33.4041023314754],[-111.599471249661,33.4041031120657],[-111.599454206842,33.4041041685748],[-111.599437163951,33.4041049491604],[-111.59942012106,33.4041057297436],[-111.599403407137,33.4041065120673],[-111.599386365245,33.404107017629],[-111.599369322349,33.4041077991069],[-111.599352281532,33.4041083046666],[-111.599335239635,33.404108811123],[-111.599318197739,33.404109317577],[-111.599301156921,33.4041098231297],[-111.599284116024,33.4041100545621],[-111.599267074127,33.4041105610091],[-111.599250362206,33.4041107923767],[-111.599233321309,33.4041110238022],[-111.599216280412,33.4041112552253],[-111.59919924059,33.4041114866488],[-111.599182200693,33.4041114430504],[-111.599165160871,33.4041116744693],[-111.599148120974,33.4041116308661],[-111.59801530965,33.4041122985309],[-111.597835083536,33.404112110584],[-111.597829632309,33.4076745744548],[-111.593574146054,33.4076715344377],[-111.59357686034,33.4042758918645],[-111.58920455606,33.4042726733298],[-111.589206899707,33.4006711742712],[-111.584901941202,33.4006701807999],[-111.584901390137,33.3970145289211],[-111.580867262751,33.3970127465797],[-111.580866430478,33.4005581835002],[-111.580867522075,33.4079560539545],[-111.580821309218,33.407955927972],[-111.580816924425,33.4150687660998],[-111.580818304699,33.4164154832952],[-111.58279091969,33.4164161370138],[-111.582791528155,33.4159994816856],[-111.584891276715,33.4160040174966],[-111.584876705034,33.4221738471106],[-111.580868282925,33.4221740518886],[-111.580867115932,33.4224777466187],[-111.589178966963,33.422477985977],[-111.589182005752,33.4260399101079],[-111.593747820441,33.4260381412286],[-111.593743598008,33.4224795119079],[-111.597794646391,33.4224790006977],[-111.597795436084,33.425405536318],[-111.597792480067,33.4254905085253],[-111.597788229224,33.4255649203003],[-111.59778243122,33.4256392577644],[-111.597775086133,33.4257134983748],[-111.59776619834,33.4257876205019],[-111.597755767919,33.4258616016029],[-111.597743800329,33.4259354182473],[-111.597735028789,33.4259842056082],[-111.597727593384,33.4260228423618],[-111.597719735581,33.4260614185164],[-111.597566881494,33.426780663852],[-111.597557406724,33.4268276207369],[-111.597548908968,33.4268747090773],[-111.597541393656,33.4269219144603],[-111.597534861915,33.4269692233633],[-111.597529314878,33.4270166204606],[-111.597524755825,33.4270640913335],[-111.597521185887,33.4271116215579],[-111.597518605117,33.4271591967068],[-111.597517014645,33.427206802356],[-111.597516416677,33.427254424084],[-111.59751680804,33.4273020474555],[-111.597518192016,33.4273496580516],[-111.597520566507,33.4273972414399],[-111.597523930497,33.4274447822887],[-111.597528284037,33.4274922670726],[-111.597533625033,33.4275396804572],[-111.597539952464,33.4275870080126],[-111.597547263155,33.427634236205],[-111.597555556087,33.4276813506044],[-111.597567534129,33.4277411577893],[-111.597593523408,33.4278664626001],[-111.597717013143,33.4284618423682],[-111.597737738642,33.4285707343923],[-111.597748878762,33.4286391894003],[-111.597758591309,33.4287077958285],[-111.597766876348,33.4287765347416],[-111.597773726432,33.4288453835785],[-111.597779144855,33.4289143225102],[-111.597783126314,33.4289833307844],[-111.597785671958,33.4290523867633],[-111.597786778638,33.429121468798],[-111.597786937789,33.4293685032718],[-111.59778700498,33.4294736442919],[-111.589179229729,33.429470737761],[-111.589178823001,33.4313918999345],[-111.588226761057,33.4313917990407],[-111.588227391312,33.436683339789],[-111.583902324077,33.4366808807139],[-111.58390416926,33.4350146002298],[-111.584985682368,33.4350140644906],[-111.584984292754,33.4332036978559],[-111.587146423868,33.4332045161906],[-111.587145067263,33.4313916756251],[-111.581736518288,33.4313908032082],[-111.581736722584,33.4294698412608],[-111.580869285471,33.4294697023502],[-111.580872268772,33.4350152831397],[-111.581736307924,33.4350150965518],[-111.581736126911,33.4367211570414],[-111.580873185011,33.4367207956019],[-111.580861850962,33.444055865545],[-111.589302533164,33.444058929558],[-111.597986901031,33.4440616947428],[-111.597981702602,33.4511671505512],[-111.606607767443,33.4511670427755],[-111.615407594181,33.4511695046488]],[[-111.61904860291,33.3934776349369],[-111.619026017511,33.3991544187571],[-111.623888593322,33.3991563691422],[-111.623884187237,33.400473066431],[-111.619631343098,33.4004669302103],[-111.619615569367,33.4040532163574],[-111.61953341486,33.4041217294777],[-111.617544698128,33.4041191486924],[-111.615588429711,33.4041144164177],[-111.615576263252,33.407648834095],[-111.615186315777,33.407645138814],[-111.606852924408,33.4076465929172],[-111.606833727459,33.414914696336],[-111.607916544202,33.4149118918614],[-111.607908671844,33.4186257833378],[-111.607905175587,33.4196157469443],[-111.608821210589,33.4196182994463],[-111.608823436303,33.4187069357308],[-111.611731674045,33.418703363877],[-111.611731503124,33.4187940989592],[-111.611728713294,33.4190299041321],[-111.611600344068,33.419281616737],[-111.610992432541,33.4192353454253],[-111.610986038123,33.4214164328233],[-111.612290663862,33.4214194685684],[-111.612287124952,33.4221535319095],[-111.615534170074,33.4221561592473],[-111.615530605058,33.4260451307253],[-111.617566038266,33.4260473079834],[-111.617565210965,33.4262891654989],[-111.617896274461,33.4262844665893],[-111.618272633819,33.4264530248003],[-111.618009141653,33.4268261725326],[-111.617749293383,33.4270921397315],[-111.616906188106,33.4282609204694],[-111.616651934834,33.4288044880759],[-111.616674463108,33.4289254713615],[-111.616831079465,33.4291347288656],[-111.616889655172,33.429258547622],[-111.616885613176,33.4294811585618],[-111.61552532444,33.4294806099878],[-111.615532697092,33.4350969534866],[-111.617471128707,33.4351008540943],[-111.617468617976,33.4366954892891],[-111.61551652094,33.4366932460349],[-111.615516337355,33.4368435290337],[-111.615515817209,33.4369944144481],[-111.623960143739,33.4370077670321],[-111.624091266665,33.4370079682265],[-111.624104063001,33.4297131951562],[-111.632469893202,33.4297244374839],[-111.632830466035,33.4297250872979],[-111.632823112026,33.432371499374],[-111.636976217127,33.4323787386308],[-111.636980314901,33.4312990330465],[-111.635983014742,33.4312922527301],[-111.635983717004,33.4308940111523],[-111.636981826489,33.4309005209615],[-111.636986668382,33.4296245959339],[-111.636991765075,33.4241984468835],[-111.634947078888,33.4241949895311],[-111.634961966282,33.4257406464911],[-111.635019583973,33.425931322095],[-111.633690197247,33.4259281044225],[-111.63283324364,33.4254195032271],[-111.632837806595,33.4241749704064],[-111.632445927861,33.4241743688815],[-111.6314961085,33.4241733891123],[-111.631496590622,33.422207744406],[-111.631033149502,33.4222071181839],[-111.631038261759,33.4210767244229],[-111.632487624366,33.4212284561012],[-111.632774257057,33.4212291123993],[-111.632784038372,33.4192709008417],[-111.632888469201,33.4192710586223],[-111.63289126667,33.4186523730125],[-111.631049360867,33.4186490774423],[-111.628341257734,33.4186436361497],[-111.628356831234,33.4155114332431],[-111.63052325071,33.4155143570098],[-111.631065492923,33.415515593871],[-111.632902007551,33.4155170633501],[-111.632896936433,33.4169975478979],[-111.636927147184,33.4170073882166],[-111.636916872523,33.4192770704284],[-111.637015180832,33.4192772154366],[-111.636994308246,33.4222164089975],[-111.641469113404,33.4222235702482],[-111.641468983339,33.4222647957654],[-111.649888961032,33.422274949723],[-111.649889087117,33.4222337241772],[-111.658789962737,33.4222553278344],[-111.658828785052,33.4155657613022],[-111.663086747635,33.4155717991602],[-111.663086220791,33.4156402346644],[-111.663074290059,33.4178342606768],[-111.665166560137,33.4178371475873],[-111.665160863079,33.4186660310721],[-111.667234164032,33.4186708365664],[-111.667251038991,33.415055299027],[-111.660473675861,33.415041484091],[-111.660490871676,33.408049573265],[-111.659271903915,33.4080470504859],[-111.659270665129,33.4082199217731],[-111.658875460772,33.4082180021026],[-111.658875241372,33.4080462269694],[-111.658767175039,33.40804600149],[-111.653544122781,33.4080382829453],[-111.653544421695,33.4084333941186],[-111.653155113856,33.4084324903603],[-111.652955543911,33.4084320266727],[-111.652955711596,33.4080374448956],[-111.649986585497,33.4080331708402],[-111.649967100906,33.4110066661443],[-111.648815358136,33.4109989614383],[-111.648829273593,33.4080585541531],[-111.641409186518,33.4080447023913],[-111.641382911858,33.413307296609],[-111.640837155763,33.4133062566722],[-111.640837428194,33.4149829414428],[-111.638970406594,33.4149800198527],[-111.638926602276,33.4149516290669],[-111.638017224443,33.4149498775319],[-111.638017026553,33.414978510658],[-111.63720132,33.4149772123671],[-111.637154776889,33.4149608128875],[-111.637135988645,33.4149215166883],[-111.637146693793,33.4131103434898],[-111.63704837479,33.4131106710744],[-111.637056190556,33.4114869324072],[-111.637154503818,33.411487154837],[-111.637155094767,33.4114047044254],[-111.636957769668,33.4114045635919],[-111.636972882562,33.4080105921044],[-111.637169504775,33.408009936907],[-111.637170315706,33.4078587762178],[-111.637181965467,33.4043147324165],[-111.640902835056,33.4043192109557],[-111.642970856152,33.4043224164848],[-111.643000630156,33.4043222395975],[-111.643030395855,33.4043216253582],[-111.643060143565,33.4043205764504],[-111.643089864687,33.4043190919537],[-111.643119551693,33.4043171727531],[-111.643149192756,33.4043148188225],[-111.643178781419,33.4043120319513],[-111.643208306932,33.4043088121156],[-111.643237761762,33.4043051611025],[-111.643267135159,33.4043010788882],[-111.643296419591,33.4042965672596],[-111.643325606451,33.4042916280013],[-111.643354683911,33.4042862619889],[-111.643383646587,33.404280471014],[-111.643412484797,33.4042742577606],[-111.643441188864,33.4042676222074],[-111.643469750176,33.4042605679424],[-111.6434981612,33.4042530967524],[-111.643526412254,33.4042452113214],[-111.643554494732,33.4042369125323],[-111.643582400019,33.4042282048747],[-111.643610119513,33.4042190892315],[-111.643637645672,33.4042095700948],[-111.643683070979,33.4041928126751],[-111.643683846586,33.404340479308],[-111.644075115943,33.404336666863],[-111.644074399897,33.4042457960217],[-111.645085689149,33.404246781853],[-111.645333830572,33.4040386441412],[-111.645356907582,33.4040534050101],[-111.645380287755,33.4040678256931],[-111.645403965728,33.4040819025717],[-111.645427931841,33.4040956302142],[-111.645452180731,33.4041090050019],[-111.645476703809,33.4041220224075],[-111.645501494634,33.4041346797116],[-111.645526544623,33.4041469714849],[-111.645551846256,33.4041588950059],[-111.645577394171,33.4041704466558],[-111.645603176556,33.4041816219002],[-111.645629188039,33.4041924189237],[-111.645655420034,33.404202833199],[-111.645681863952,33.4042128611003],[-111.645708513342,33.4042225026135],[-111.645735359625,33.4042317505059],[-111.6457623942,33.4042406047588],[-111.645789608478,33.4042490617463],[-111.645816994941,33.404257118747],[-111.645844544994,33.4042647739384],[-111.645872248969,33.4042720245943],[-111.64590010042,33.4042788688971],[-111.645928090756,33.4042853041229],[-111.645956210306,33.404291328447],[-111.645984450471,33.4042969409488],[-111.64601280266,33.4043021389045],[-111.646041259351,33.4043069204942],[-111.646069811946,33.4043112847973],[-111.646098449695,33.4043152317903],[-111.646127166157,33.4043187578523],[-111.646155951656,33.4043218629622],[-111.646184796517,33.4043245470987],[-111.646213693221,33.4043268075405],[-111.646242633165,33.4043286451703],[-111.646271606676,33.4043300590654],[-111.64630060408,33.404331048303],[-111.646354193883,33.4043317592837],[-111.649943663185,33.4043369725259],[-111.649952038489,33.4005132116421],[-111.648058095285,33.4005118738603],[-111.648055073739,33.3987207280881],[-111.64157748041,33.3987101073418],[-111.641598058258,33.3932050851211],[-111.63296137061,33.393193884091],[-111.632961452867,33.3860919844403],[-111.632601074798,33.3860911601556],[-111.632603749005,33.3933442279762],[-111.632599006471,33.3942750280217],[-111.633963022222,33.3942763420852],[-111.633952419166,33.3952463664494],[-111.63395237102,33.396072986749],[-111.632589853945,33.396071261131],[-111.632585697403,33.3968868882056],[-111.624207498405,33.3968756674145],[-111.624223110516,33.3931845901789],[-111.615402957284,33.3931717347082],[-111.615402346973,33.3934729577567],[-111.61904860291,33.3934776349369]],[[-111.59348767371,33.3934618906206],[-111.593488588779,33.3922825627234],[-111.593490968517,33.3877049305245],[-111.597214205003,33.3877029322418],[-111.597773657667,33.3877026225552],[-111.597776194309,33.3877247235599],[-111.597853134937,33.3883950460899],[-111.597853288821,33.3877250785181],[-111.59785367941,33.3860614508962],[-111.597848986784,33.3843813356057],[-111.59785067197,33.3843684220961],[-111.597852348125,33.3843579828441],[-111.597854025284,33.3843472685744],[-111.597855702443,33.3843365543046],[-111.597857706423,33.3843261149929],[-111.59785938358,33.384315400723],[-111.59786138856,33.3843046872952],[-111.597863064716,33.3842942471412],[-111.597865069695,33.3842835337132],[-111.597867073598,33.3842728202824],[-111.597869076501,33.3842623809676],[-111.597871081478,33.3842516675395],[-111.597873413274,33.384241229971],[-111.597875417175,33.38423051654],[-111.597877748973,33.3842200780697],[-111.59788008177,33.3842093654834],[-111.59788208467,33.3841989261682],[-111.597884416463,33.3841884885994],[-111.597886749258,33.3841777760129],[-111.597889407801,33.3841673383815],[-111.597891739592,33.3841569008125],[-111.597894071311,33.3841461882229],[-111.597896730926,33.3841357505941],[-111.597899389462,33.384125313864],[-111.59790172118,33.3841146012743],[-111.597904379718,33.3841041636425],[-111.597907038253,33.3840937269122],[-111.597910025686,33.3840832901249],[-111.59791268422,33.3840728533944],[-111.597915342752,33.384062416664],[-111.597918330187,33.3840519789747],[-111.597920989722,33.3840412672263],[-111.597923976074,33.3840308313374],[-111.597926962429,33.3840203945468],[-111.597929949854,33.3840099586605],[-111.597932935204,33.3839997968874],[-111.597936249375,33.38398936184],[-111.597939235727,33.3839789250489],[-111.597942221,33.3839684891568],[-111.597945535171,33.3839580532073],[-111.597948849339,33.3839476181595],[-111.597952162506,33.3839374572276],[-111.597955476672,33.3839270221795],[-111.59795879084,33.3839165862297],[-111.597962105005,33.3839061511814],[-111.597965418168,33.3838959902491],[-111.597969060152,33.3838855560423],[-111.597972373314,33.3838753951097],[-111.597976015296,33.3838649609027],[-111.597978662788,33.3838575466605],[-111.597979656278,33.3838548008117],[-111.597983298258,33.3838443666044],[-111.597986938163,33.3838342065103],[-111.597990579067,33.3838237723],[-111.597994547866,33.3838136130501],[-111.597998188839,33.38380345386],[-111.598002157565,33.3837930195893],[-111.598005798536,33.383782860399],[-111.598009767332,33.3837727011485],[-111.598013735051,33.3837625418951],[-111.598017703841,33.383752383546],[-111.598021672561,33.3837419492745],[-111.598025641349,33.3837317909251],[-111.598029936885,33.3837216325127],[-111.598033905675,33.3837114732612],[-111.598038200202,33.3837015907679],[-111.59804249681,33.3836914323578],[-111.598046463447,33.3836812731004],[-111.59805076005,33.3836711155915],[-111.59805505558,33.3836609571781],[-111.598059680004,33.3836507996087],[-111.598063974525,33.3836409171144],[-111.598068270052,33.3836307587004],[-111.598072893474,33.3836208752466],[-111.598077516815,33.3836107185754],[-111.598081812339,33.3836005601609],[-111.598086434679,33.3835906776054],[-111.598091058093,33.3835807950525],[-111.59809568143,33.3835706383805],[-111.598100631587,33.3835607566659],[-111.598105253923,33.3835508741096],[-111.598110204005,33.3835407173739],[-111.598114826335,33.3835308357189],[-111.598119776488,33.3835209540034],[-111.598124726639,33.3835110722876],[-111.598129676789,33.3835011905717],[-111.598134626937,33.3834913088555],[-111.598139577082,33.3834814280407],[-111.598144527228,33.3834715463241],[-111.598149805193,33.3834616654485],[-111.598154755337,33.3834517837314],[-111.598160032297,33.3834421778731],[-111.598165310259,33.3834322969967],[-111.598170260399,33.3834224152789],[-111.598175537356,33.3834128094199],[-111.59818081316,33.383402929439],[-111.598186418936,33.3833930494028],[-111.598191695889,33.383383443543],[-111.598183445538,33.3824096600398],[-111.598194325691,33.379058823397],[-111.5893410048,33.3790143529759],[-111.584256934908,33.3789761056217],[-111.580852009585,33.3789614402428],[-111.580873955003,33.3860496499313],[-111.580866424377,33.3933048728706],[-111.580867816571,33.3934543890728],[-111.588153328487,33.3934568519352],[-111.589342671211,33.3934599954997],[-111.59348767371,33.3934618906206]],[[-111.684916894266,33.3941238533071],[-111.684830750866,33.4006731670318],[-111.684824880588,33.4012813802563],[-111.684795263905,33.4036798642984],[-111.685618058899,33.4036877218729],[-111.685608669913,33.4043896488754],[-111.686297779695,33.404396427884],[-111.686284439808,33.4053561478413],[-111.686561005213,33.4053585852789],[-111.686535893227,33.4069336529709],[-111.687684153446,33.4069297323534],[-111.68769343924,33.4083910799496],[-111.693242185366,33.4083577733147],[-111.694877116163,33.4083486165499],[-111.694877255857,33.4082936470438],[-111.696368322403,33.408285310753],[-111.696368238458,33.4083185663969],[-111.70190648773,33.4082870519792],[-111.710728645026,33.4082375754023],[-111.710770702617,33.4034274053343],[-111.71021088652,33.401158023275],[-111.709847466551,33.3996430394601],[-111.709816840628,33.3995375058407],[-111.709784023847,33.3994324356437],[-111.709749024734,33.3993278631466],[-111.709711856127,33.3992238181252],[-111.70967252763,33.3991203330551],[-111.709631054227,33.3990174395191],[-111.709587444452,33.3989151681873],[-111.709541713283,33.3988135515439],[-111.70949387463,33.3987126202679],[-111.709443945632,33.3986124032403],[-111.709391936964,33.3985129338393],[-111.709337866844,33.3984142391443],[-111.709281752399,33.3983163525443],[-111.709192341471,33.3981687938217],[-111.70657107442,33.3940500004368],[-111.702039634727,33.3940724768781],[-111.69332443599,33.3940980457074],[-111.685981756244,33.3941230888973],[-111.684916894266,33.3941238533071]],[[-111.706088614239,33.4163308522651],[-111.704943363159,33.4169363000621],[-111.703152696676,33.4174416867654],[-111.702758011809,33.4180154239069],[-111.702069209715,33.4182396025965],[-111.701862579227,33.4183024580421],[-111.701867826083,33.4174999325058],[-111.701599076554,33.4175022152835],[-111.697521991299,33.417517064649],[-111.697517881815,33.4178496139251],[-111.697189909372,33.4179424804045],[-111.695452882309,33.4179476394345],[-111.695462083464,33.4169005115554],[-111.695463250912,33.4164387816472],[-111.693096995313,33.4164482801094],[-111.690924107814,33.4164553379543],[-111.690922909232,33.4169198160988],[-111.689869947499,33.4169237720071],[-111.689867670306,33.4175263521744],[-111.690919756947,33.4175255596912],[-111.690914469982,33.4185394374874],[-111.690807629074,33.4185384188586],[-111.69072565472,33.4184269587762],[-111.690500497363,33.4184268235155],[-111.69050081721,33.4185037790971],[-111.688845549998,33.4185062426123],[-111.688843171278,33.4189086090478],[-111.688831998748,33.4206178215124],[-111.688819366192,33.4227638779927],[-111.687379030298,33.4227664954196],[-111.687387861473,33.4206164186651],[-111.687395468456,33.4189040456498],[-111.687197918679,33.4189034216032],[-111.687206733225,33.4167920662714],[-111.684676593684,33.4168038492617],[-111.684670520394,33.4179571881555],[-111.685460117636,33.4179538724056],[-111.685457939645,33.4187781155745],[-111.685320323587,33.4187786227579],[-111.685325581828,33.4192549916845],[-111.685016710532,33.419256388232],[-111.685015803089,33.4194017276021],[-111.684662939323,33.4193971890556],[-111.684658513844,33.4202376115673],[-111.685009662211,33.4202358575503],[-111.685006438195,33.4206967598498],[-111.684656086775,33.4206985658389],[-111.684643582971,33.4230729005648],[-111.687216490894,33.4230694429894],[-111.687176193902,33.4265385702868],[-111.685263708377,33.4265388413343],[-111.685246459796,33.4282647258636],[-111.684593744502,33.428265823733],[-111.684589188475,33.4287509994505],[-111.685602034965,33.4287473945156],[-111.685595315995,33.4300501249282],[-111.687663637426,33.4300484650149],[-111.687663062162,33.4302683358471],[-111.684601544544,33.4302708880476],[-111.68458088795,33.4318786646726],[-111.692959249238,33.4318693300389],[-111.692950279458,33.4328596447384],[-111.693188145144,33.4328592773553],[-111.693191254592,33.4325310130539],[-111.69582133577,33.4325291983993],[-111.695821512826,33.4322614293541],[-111.696079814676,33.4322609566509],[-111.696079472033,33.4325290274739],[-111.697406344172,33.4325280772857],[-111.697404697328,33.4327826770855],[-111.697601377646,33.4327823690882],[-111.697603061763,33.4325221219919],[-111.701536064254,33.4325144427791],[-111.701548680995,33.430136184873],[-111.701761744693,33.4301358175247],[-111.701869582905,33.4301368293786],[-111.702702159518,33.4301355209166],[-111.706084908029,33.4301303184232],[-111.706904372294,33.4301289594909],[-111.710424796158,33.430121123902],[-111.711257379282,33.4301170096336],[-111.714715511492,33.4301144458632],[-111.718842335558,33.4301073572065],[-111.718879838447,33.4236651531859],[-111.71890933672,33.4236652002162],[-111.718910839303,33.4230000888865],[-111.718878063695,33.4230000366315],[-111.718904295519,33.4192229407116],[-111.715989326473,33.4192303504944],[-111.715953343352,33.4192000590422],[-111.715953854469,33.4189774399283],[-111.715653285859,33.4185619429962],[-111.715493292441,33.4183005843584],[-111.715343430188,33.4179100673921],[-111.715286377864,33.4174457701708],[-111.711576278464,33.4174586477937],[-111.71157445007,33.4179038910177],[-111.710624012338,33.4179023161021],[-111.710625041171,33.4174653203654],[-111.710362853075,33.4174648846322],[-111.710361525038,33.418028306011],[-111.706274596215,33.4180379298201],[-111.706285226192,33.4163421794166],[-111.706088587705,33.4163418457995],[-111.706088614239,33.4163308522651]],[[-111.63280691351,33.4381604009931],[-111.632799720055,33.4405814428325],[-111.639128682572,33.4405790083145],[-111.639138615868,33.438690060909],[-111.636976366746,33.4386821790769],[-111.636978044028,33.4381580638284],[-111.63280691351,33.4381604009931]],[[-111.852601344067,33.4443891077146],[-111.852601018946,33.4446997079695],[-111.853168188207,33.4446932648707],[-111.853168774115,33.4441415242538],[-111.852611440569,33.4441476595484],[-111.8526111793,33.444388995574],[-111.852601344067,33.4443891077146]],[[-111.632600299523,33.4495616198613],[-111.632608526531,33.4442338897256],[-111.631526015772,33.4442316893889],[-111.631524886541,33.4450282100412],[-111.630519584839,33.4450236437272],[-111.630520219287,33.4442295989345],[-111.627196961381,33.444222469438],[-111.627192842924,33.4477401203931],[-111.630554263824,33.4477458641861],[-111.630553265908,33.4486532411643],[-111.63009362697,33.4495574408022],[-111.632600299523,33.4495616198613]],[[-111.839766604845,33.3853546059818],[-111.839864452516,33.384317748472],[-111.839243988574,33.3843190437813],[-111.839220867393,33.3843192610964],[-111.839197753437,33.3843198165534],[-111.839174655301,33.3843207110594],[-111.839151580512,33.3843219437173],[-111.839128533369,33.3843235136281],[-111.839105522471,33.3843254198956],[-111.839082555341,33.3843276643278],[-111.839059637355,33.3843302433213],[-111.83903677711,33.3843331586849],[-111.839013982132,33.3843364086199],[-111.838991256722,33.384339990424],[-111.838968610552,33.3843439050049],[-111.838946047924,33.384348150562],[-111.838923578513,33.3843527252979],[-111.838901205543,33.384357628313],[-111.838878939763,33.3843628587123],[-111.838856785476,33.3843684137936],[-111.838834750204,33.3843742935615],[-111.838812841475,33.384380494414],[-111.838772231302,33.3843929468126],[-111.838747361008,33.3844007517424],[-111.838722331957,33.3844081922761],[-111.838697152752,33.3844152648123],[-111.838671829843,33.3844219675516],[-111.838646371832,33.3844282986958],[-111.838620786243,33.3844342573479],[-111.838595079531,33.3844398390033],[-111.838569260293,33.3844450436673],[-111.838543338205,33.3844498695426],[-111.838517318644,33.384454314829],[-111.838491211284,33.3844583795325],[-111.838465023651,33.384462060051],[-111.838438762195,33.3844653572903],[-111.838412435516,33.384468270354],[-111.838386054365,33.3844707965437],[-111.838359624115,33.3844729358628],[-111.838333152293,33.3844746883159],[-111.838306649646,33.3844760530082],[-111.838280120477,33.3844770290405],[-111.838230476899,33.3844778119236],[-111.835969928951,33.3844824845148],[-111.83594281607,33.3844823424481],[-111.835915708932,33.3844818018229],[-111.835888617209,33.3844808653507],[-111.835861549499,33.384479533037],[-111.835834513327,33.3844778039852],[-111.835807518367,33.3844756800048],[-111.835780571067,33.3844731601985],[-111.835753678951,33.3844702463745],[-111.835726852767,33.3844669394418],[-111.835700100039,33.3844632394051],[-111.835673428288,33.3844591489746],[-111.835646843964,33.3844546690563],[-111.835620357815,33.3844497996572],[-111.835593977362,33.3844445434874],[-111.835567711204,33.3844389023561],[-111.835541564715,33.3844328771686],[-111.835515547564,33.3844264706363],[-111.83548966835,33.3844196845684],[-111.835463934598,33.38441251897],[-111.835427670753,33.3844017044634],[-111.835242507892,33.3843443073467],[-111.835219797783,33.3843958685157],[-111.835218816123,33.3854567624005],[-111.838003596956,33.3854508011638],[-111.83800335047,33.3853592782493],[-111.839766604845,33.3853546059818]],[[-111.670532006142,33.3504223457601],[-111.670526317858,33.3501471677267],[-111.670706489807,33.3501486572662],[-111.67049639829,33.3400328009371],[-111.670529679465,33.3400329949407],[-111.670482154475,33.3377213767065],[-111.670514903427,33.3377214217757],[-111.670479301062,33.335989681472],[-111.67034072915,33.3359898413639],[-111.670341284412,33.3358975239672],[-111.670233738395,33.3358967632979],[-111.661549601788,33.3358264617542],[-111.661550861704,33.3359171741568],[-111.661688141693,33.343139465079],[-111.666032198742,33.3431758604692],[-111.666072670466,33.3449753238369],[-111.670311724703,33.3450126635323],[-111.670426028938,33.3505586847712],[-111.670534109392,33.3505595834391],[-111.670532006142,33.3504223457601]],[[-111.661827401942,33.3504492384609],[-111.659645311175,33.3504320442762],[-111.659645956331,33.3504772124026],[-111.659758290337,33.3504780598205],[-111.660047172094,33.3504802378317],[-111.660191437313,33.3504813257717],[-111.66040747899,33.3504829539273],[-111.660635614139,33.3504846724665],[-111.660823222878,33.3504860861792],[-111.661013684161,33.3504875208102],[-111.661459637052,33.3504908790347],[-111.661897766197,33.3504941763246],[-111.661958270051,33.3504946313677],[-111.661958392842,33.3504491447173],[-111.661827401942,33.3504492384609]],[[-111.657466649578,33.3504613671192],[-111.657465960275,33.3504147985325],[-111.653111756056,33.3503802271017],[-111.653112545284,33.3504274514636],[-111.657466649578,33.3504613671192]],[[-111.652922448381,33.3394553343817],[-111.645005674551,33.3394022679069],[-111.644811336334,33.3398395057501],[-111.644700234698,33.340227528265],[-111.644604398548,33.3406184081332],[-111.644523931801,33.3410117223508],[-111.644458921746,33.3414070452734],[-111.644409438946,33.3418039490774],[-111.644375537166,33.3422020042225],[-111.644357253307,33.3426007799166],[-111.644354607372,33.3429998445821],[-111.652986216326,33.3430661025943],[-111.652922448381,33.3394553343817]],[[-111.644764171511,33.3368696829773],[-111.645105395563,33.3362395639908],[-111.645474830101,33.3356907608806],[-111.644227964334,33.335679953803],[-111.644229155038,33.3357684966563],[-111.644243875055,33.3368653120527],[-111.644764171511,33.3368696829773]],[[-111.646946374832,33.3363649930317],[-111.648552155355,33.3363795273872],[-111.648542250475,33.335717284164],[-111.647534089226,33.335708575375],[-111.647435118735,33.3357963754389],[-111.646946374832,33.3363649930317]],[[-111.600863899892,33.3209001668923],[-111.599655878184,33.320892755721],[-111.599655318652,33.3209339789059],[-111.600735576309,33.3209443105187],[-111.600736785683,33.3210541632402],[-111.600865653216,33.3210551996313],[-111.600863899892,33.3209001668923]],[[-111.635007062528,33.3056595553568],[-111.633499905639,33.3056859345648],[-111.633174565879,33.3056805813827],[-111.633176528559,33.3056531465678],[-111.63286456029,33.3056270528011],[-111.632555991671,33.305580488238],[-111.632252724897,33.3055137399309],[-111.631956629466,33.3054272193561],[-111.631669530657,33.3053214598761],[-111.631393198268,33.3051971134507],[-111.631129335708,33.3050549466164],[-111.630879569491,33.30489583576],[-111.630164162467,33.304401761728],[-111.629952116736,33.3042661427271],[-111.629728605206,33.3041441954072],[-111.629494875435,33.3040366004081],[-111.629252231998,33.3039439582603],[-111.629002029206,33.3038667860348],[-111.628745663549,33.3038055144576],[-111.628484565906,33.3037604855065],[-111.628220193558,33.303731950503],[-111.627954022056,33.3037200687097],[-111.627687536992,33.303724906442],[-111.627422225705,33.3037464366983],[-111.627159568987,33.30378453931],[-111.626901032816,33.3038390016126],[-111.626648060181,33.3039095196322],[-111.626402063025,33.3039956997815],[-111.626164414373,33.3040970610557],[-111.625585669356,33.3043671988475],[-111.625368658967,33.3040350915014],[-111.624400137767,33.3044573455009],[-111.624035347147,33.3045823208919],[-111.623545722625,33.3047957803829],[-111.621803343261,33.3031789024965],[-111.619462355579,33.3020540064246],[-111.618020058245,33.3014653315429],[-111.617960950308,33.3010316855575],[-111.617336913808,33.3010272056597],[-111.617145455785,33.3010343548612],[-111.617080868376,33.301395728814],[-111.616883932899,33.301308438241],[-111.616518217346,33.3011486537374],[-111.615657978857,33.300782466327],[-111.615067883745,33.3005525752992],[-111.613886313178,33.300099674216],[-111.612781487317,33.2998456306703],[-111.612084822685,33.2996355885069],[-111.610048762688,33.2991298240079],[-111.6093875237,33.2989945822671],[-111.607922397365,33.2988120825264],[-111.60505643225,33.2985292858401],[-111.605054813406,33.298190324861],[-111.604974096269,33.2981906030622],[-111.604944846261,33.2921160857801],[-111.604748530505,33.292114043202],[-111.604763403802,33.2956124689116],[-111.600687519917,33.2955760692617],[-111.600692753978,33.2992205233856],[-111.600740151981,33.3028439850852],[-111.602745718238,33.3028624626251],[-111.602768425287,33.3046736759489],[-111.604835878172,33.3047004592903],[-111.605033913436,33.3046910344802],[-111.604986097448,33.2999409994922],[-111.607108532839,33.2999168029135],[-111.608857002221,33.300119569964],[-111.610604694484,33.3004389685456],[-111.612962756387,33.3010216397652],[-111.614293042268,33.301489624865],[-111.615184175261,33.3018569408305],[-111.616506618117,33.302599443846],[-111.617738593945,33.3033818506665],[-111.619207445043,33.3042953659506],[-111.620699669019,33.3053126432386],[-111.62126573011,33.3058060505108],[-111.621772231788,33.3062783182542],[-111.62216763722,33.3066523571276],[-111.627645842866,33.311834075006],[-111.633261639347,33.3183118805557],[-111.635302179566,33.3187515633939],[-111.635207521716,33.3139966811063],[-111.635060603252,33.3067769626457],[-111.635037987955,33.3056849457049],[-111.635007062528,33.3056595553568]],[[-111.630924149755,33.295478872837],[-111.631788957203,33.2962201493651],[-111.634746273897,33.2987573239534],[-111.634576739135,33.2987598400825],[-111.63458107639,33.2989659397184],[-111.634882136946,33.2989614720855],[-111.634880256139,33.2988721570147],[-111.634896924834,33.2988864437798],[-111.634759652184,33.2923955810884],[-111.630855885658,33.2923635155488],[-111.630924149755,33.295478872837]],[[-111.634636384838,33.3015959637872],[-111.634640718025,33.3018020642204],[-111.634941788312,33.3017976001033],[-111.634937454416,33.3015914996768],[-111.634636384838,33.3015959637872]],[[-111.634696020717,33.3044321204246],[-111.634700354135,33.3046382207631],[-111.634968708826,33.3046342414401],[-111.634964373702,33.304428141105],[-111.634696020717,33.3044321204246]]]},"properties":{"OBJECTID":2826,"CITY":"MESA"}},{"type":"Feature","id":2828,"geometry":{"type":"Polygon","coordinates":[[[-111.620763616902,33.4149495884247],[-111.620773857971,33.4132791019921],[-111.621854199803,33.4132753556599],[-111.621848097143,33.4149510386729],[-111.620763616902,33.4149495884247]]]},"properties":{"OBJECTID":2828,"CITY":"MESA"}},{"type":"Feature","id":3227,"geometry":{"type":"Polygon","coordinates":[[[-111.639233806132,33.3942828062014],[-111.639237532284,33.3935305610278],[-111.641267950989,33.3935332845272],[-111.641314289546,33.3935494670042],[-111.641333383764,33.3935884058247],[-111.641329920825,33.3942857414122],[-111.639233806132,33.3942828062014]]]},"properties":{"OBJECTID":3227,"CITY":"MESA"}},{"type":"Feature","id":3627,"geometry":{"type":"Polygon","coordinates":[[[-111.649871035258,33.4660458097775],[-111.646027480415,33.4660277743144],[-111.646030111117,33.4653619968742],[-111.646088315758,33.4653621383538],[-111.646089836161,33.464977369187],[-111.645630908902,33.4649762467583],[-111.645642220296,33.4623392347962],[-111.647911280666,33.4623463818296],[-111.647912074622,33.4640943717877],[-111.649875739136,33.4641037438559],[-111.649871035258,33.4660458097775]]]},"properties":{"OBJECTID":3627,"CITY":"MESA"}}]}